{"type":"FeatureCollection","attribution":"geoBoundaries gbOpen KEN ADM1, source RCMRD, public domain","features":[{"type":"Feature","properties":{"county":"Turkana","region_id":"asal_north"},"geometry":{"type":"Polygon","coordinates":[[[36.0506,4.4562],[35.9439,4.548],[35.9493,4.6286],[35.8121,4.7824],[35.8118,5.0957],[35.8619,5.1574],[35.8641,5.1825],[35.8277,5.2422],[35.8302,5.2623],[35.8602,5.2912],[35.8632,5.3201],[35.7825,5.3549],[35.7739,5.3472],[35.7509,5.3733],[35.7222,5.3718],[35.7166,5.3912],[35.6714,5.3844],[35.6517,5.3936],[35.618,5.3805],[35.6167,5.4039],[35.6006,5.3984],[35.5598,5.4229],[35.2918,5.4306],[35.1946,5.2767],[34.3658,4.5766],[33.9928,4.2225],[34.0486,4.1783],[34.067,4.1422],[34.0508,4.1208],[34.0931,4.0687],[34.0904,4.0376],[34.0598,4.0279],[34.062,4.0094],[34.1344,3.9616],[34.1194,3.902],[34.0912,3.8856],[34.0885,3.8616],[34.2156,3.8815],[34.2254,3.8308],[34.1795,3.8317],[34.1532,3.8072],[34.1886,3.7954],[34.1904,3.7834],[34.1653,3.7739],[34.1718,3.7677],[34.2455,3.7843],[34.3078,3.7124],[34.3026,3.6861],[34.3242,3.7274],[34.3699,3.7351],[34.4031,3.6929],[34.463,3.6696],[34.451,3.5188],[34.4235,3.4915],[34.3888,3.4919],[34.4167,3.4505],[34.4006,3.3713],[34.4292,3.3431],[34.4477,3.2829],[34.4554,3.1828],[34.4947,3.1415],[34.5133,3.1511],[34.5476,3.1388],[34.5755,3.0992],[34.5774,3.0233],[34.5991,2.9261],[34.6401,2.9076],[34.6535,2.8675],[34.6927,2.8629],[34.7023,2.8781],[34.737,2.8552],[34.7493,2.8258],[34.7666,2.8226],[34.7838,2.7499],[34.7749,2.6978],[34.8519,2.5835],[34.8673,2.5708],[34.8781,2.5727],[34.8794,2.5896],[34.897,2.5881],[34.9127,2.5167],[34.9318,2.5166],[34.9528,2.4722],[34.9408,2.4531],[35.0117,2.4036],[35.0087,2.4247],[35.0221,2.4433],[34.997,2.4787],[35.0161,2.5676],[35.0692,2.4627],[35.1075,2.5051],[35.1048,2.5548],[35.1324,2.6489],[35.1744,2.6368],[35.2249,2.5299],[35.2321,2.3512],[35.2711,2.3197],[35.298,2.2707],[35.3658,2.0362],[35.3792,1.948],[35.365,1.9289],[35.4637,1.8423],[35.4635,1.8082],[35.5099,1.7639],[35.6018,1.7582],[35.7924,1.6643],[36.0966,1.1694],[36.174,1.1709],[36.3169,0.9913],[36.3404,0.9931],[36.3501,0.9661],[36.3878,0.9482],[36.3921,0.9188],[36.4427,0.9711],[36.4396,1.0025],[36.4594,0.9784],[36.4373,1.0865],[36.4423,1.1729],[36.4186,1.1866],[36.3922,1.1732],[36.387,1.1866],[36.394,1.22],[36.4216,1.2367],[36.4134,1.2596],[36.4039,1.2514],[36.3877,1.2634],[36.395,1.2768],[36.4463,1.2511],[36.4535,1.2616],[36.4378,1.3027],[36.4194,1.2945],[36.3905,1.3129],[36.4582,1.3687],[36.4665,1.3986],[36.4473,1.4121],[36.4276,1.4081],[36.3895,1.445],[36.3559,1.436],[36.3182,1.4699],[36.2886,1.4639],[36.2961,1.5332],[36.3399,1.578],[36.3601,1.572],[36.3668,1.5957],[36.372,1.5479],[36.3935,1.5227],[36.4403,1.6156],[36.4655,1.6147],[36.4842,1.7028],[36.5009,1.7086],[36.5253,1.7549],[36.5076,1.7714],[36.5165,1.7651],[36.5295,1.8052],[36.5136,1.816],[36.523,1.8464],[36.5121,1.8496],[36.5116,1.8765],[36.5365,1.8987],[36.5385,1.957],[36.5265,1.9535],[36.5448,2.0305],[36.5681,2.058],[36.5635,2.1038],[36.6097,2.1626],[36.6362,2.1639],[36.7015,2.1997],[36.7138,2.2478],[36.7066,2.2619],[36.7228,2.275],[36.7237,2.301],[36.601,2.36],[36.6009,2.4057],[36.591,2.414],[36.5597,2.3971],[36.5382,2.4068],[36.5227,2.4484],[36.5285,2.5222],[36.513,2.5607],[36.4368,2.6335],[36.4324,2.6779],[36.4457,2.7056],[36.4271,2.7197],[36.4173,2.7625],[36.3607,2.8591],[36.2816,2.8912],[36.2537,2.9652],[36.2466,2.9491],[36.1913,2.9683],[36.1336,2.967],[36.1367,2.9792],[36.1236,2.9802],[36.1413,3.073],[36.1532,3.0858],[36.1408,3.1538],[36.1535,3.2169],[36.1477,3.224],[36.1434,3.2101],[36.1317,3.2111],[36.0521,3.2406],[36.0506,4.4562]]]}},{"type":"Feature","properties":{"county":"Marsabit","region_id":"asal_north"},"geometry":{"type":"Polygon","coordinates":[[[36.6009,2.4057],[36.6089,2.3966],[36.6221,2.4155],[36.6392,2.411],[36.6379,2.3918],[36.6435,2.4183],[36.6843,2.4579],[36.6986,2.4551],[36.6997,2.5124],[36.7567,2.5161],[36.8435,2.2748],[36.8969,2.1917],[36.92,2.0995],[36.9158,2.018],[36.95,2.0251],[37.0072,1.9851],[37.0967,1.9832],[37.1795,1.9592],[37.1909,1.9304],[37.2445,1.8827],[37.266,1.8788],[37.3061,1.7655],[37.3505,1.7421],[37.5794,1.3653],[37.598,1.3916],[37.6067,1.3762],[37.6215,1.3769],[37.6529,1.4009],[37.8427,1.4258],[37.8521,1.4591],[37.9506,1.387],[37.9453,1.2629],[38.3397,1.5774],[38.3832,1.7613],[38.9626,2.0974],[38.9358,2.1612],[38.9261,2.2841],[38.9347,2.3728],[38.8886,2.5426],[38.9767,2.5669],[39.0434,2.676],[39.0359,2.6899],[39.066,2.7376],[39.0651,2.8823],[39.1118,2.8833],[39.1236,2.9313],[39.1474,2.9528],[39.2022,2.9569],[39.2893,3.0353],[39.3468,3.0701],[39.3417,3.2554],[39.2998,3.4407],[39.3181,3.472],[39.1931,3.48],[39.1903,3.4941],[39.1523,3.5021],[39.1527,3.5113],[39.0884,3.5413],[39.0557,3.523],[39.0227,3.5255],[39.02,3.514],[39.0045,3.5265],[38.9671,3.5239],[38.9586,3.5089],[38.9043,3.5059],[38.7138,3.5656],[38.6823,3.6202],[38.6654,3.5872],[38.6113,3.6076],[38.5761,3.6011],[38.5343,3.6492],[38.5157,3.6446],[38.5223,3.6222],[38.4476,3.5976],[38.1811,3.6158],[38.1282,3.6008],[37.9896,3.7292],[37.7665,3.8695],[37.4234,4.1131],[37.132,4.2938],[37.0905,4.3431],[37.0649,4.3472],[37.0477,4.3762],[37.0322,4.3857],[37.0205,4.3719],[36.8426,4.45],[36.679,4.4414],[36.6252,4.4541],[36.5459,4.4446],[36.0506,4.4562],[36.0521,3.2406],[36.1317,3.2111],[36.1434,3.2101],[36.1477,3.224],[36.1535,3.2169],[36.1408,3.1538],[36.1532,3.0858],[36.1413,3.073],[36.124,2.9795],[36.1367,2.9792],[36.1336,2.967],[36.1913,2.9683],[36.2466,2.9491],[36.2537,2.9652],[36.2816,2.8912],[36.3588,2.8608],[36.3789,2.8383],[36.4271,2.7197],[36.4459,2.7052],[36.4324,2.6779],[36.4368,2.6335],[36.513,2.5607],[36.5285,2.5222],[36.5227,2.4484],[36.5377,2.4078],[36.5591,2.3971],[36.5907,2.4141],[36.6009,2.4057]]]}},{"type":"Feature","properties":{"county":"Mandera","region_id":"asal_northeast"},"geometry":{"type":"Polygon","coordinates":[[[40.992,2.1792],[40.9925,2.8248],[41.3283,3.1537],[41.9063,3.9764],[41.8353,3.9451],[41.7989,3.9588],[41.7939,3.9831],[41.7553,3.9746],[41.754,3.9849],[41.7191,3.9954],[41.6822,3.9777],[41.6764,3.9601],[41.6358,3.9865],[41.5663,3.9693],[41.5497,3.9856],[41.5127,3.9552],[41.5011,3.9697],[41.4812,3.9554],[41.4194,3.95],[41.3952,3.9658],[41.3792,3.9531],[41.3567,3.9617],[41.3276,3.942],[41.2974,3.9558],[41.2445,3.9503],[41.2395,3.9604],[41.2152,3.9534],[41.2069,3.9357],[41.1723,3.943],[41.1047,3.988],[41.1054,4.0078],[41.072,4.0269],[41.0424,4.0749],[41.02,4.0837],[40.9996,4.1123],[40.9819,4.1138],[40.9556,4.1441],[40.9063,4.1576],[40.8856,4.2144],[40.8553,4.2291],[40.848,4.249],[40.7618,4.283],[40.7273,4.252],[40.395,4.1139],[40.206,4.0422],[40.1901,4.0454],[40.1562,4.0137],[39.8677,3.8675],[39.7753,3.6681],[39.7868,3.3335],[40.0442,3.2242],[40.2697,2.9706],[40.4929,2.8681],[40.4945,2.818],[40.5044,2.8114],[40.4933,2.7996],[40.5222,2.7756],[40.5213,2.7411],[40.5027,2.7165],[40.5212,2.6958],[40.5594,2.5786],[40.5974,2.5123],[40.592,2.5013],[40.6336,2.4421],[40.661,2.4291],[40.6773,2.3752],[40.7326,2.3178],[40.8387,2.2747],[40.9157,2.1915],[40.9456,2.1771],[40.992,2.1792]]]}},{"type":"Feature","properties":{"county":"Wajir","region_id":"asal_northeast"},"geometry":{"type":"Polygon","coordinates":[[[38.9626,2.0974],[38.9853,2.0696],[38.9942,2.0096],[39.0685,1.9146],[39.1311,1.8662],[39.2138,1.6974],[39.3083,1.6545],[39.3453,1.626],[39.4,1.553],[39.4472,1.5272],[39.2743,1.4678],[39.4607,0.9947],[39.4925,0.9622],[39.5635,0.7572],[39.6462,0.6579],[39.665,0.6145],[39.7329,0.5259],[39.7997,0.4828],[39.8503,0.4771],[39.8747,0.4583],[39.905,0.4621],[39.9791,0.4097],[40.0596,0.3926],[40.1609,0.3259],[40.2417,0.247],[40.3313,0.1994],[40.4032,0.1838],[40.5066,0.1924],[40.5349,0.2267],[40.5862,0.2154],[40.6121,0.2328],[40.6477,0.2321],[40.6818,0.2584],[40.7157,0.3201],[40.7731,0.354],[40.8626,0.3789],[40.9918,0.4644],[40.992,2.1792],[40.9456,2.1771],[40.9157,2.1915],[40.8387,2.2747],[40.7326,2.3178],[40.6773,2.3752],[40.661,2.4291],[40.6336,2.4421],[40.592,2.5013],[40.5974,2.5123],[40.5594,2.5786],[40.5212,2.6958],[40.5027,2.7165],[40.5213,2.7411],[40.5222,2.7756],[40.4933,2.7996],[40.5044,2.8114],[40.4945,2.818],[40.4929,2.8681],[40.2697,2.9706],[40.0442,3.2242],[39.7868,3.3335],[39.7753,3.6681],[39.6094,3.5011],[39.553,3.4661],[39.5015,3.4701],[39.4424,3.4562],[39.429,3.4663],[39.3181,3.472],[39.3045,3.4558],[39.3017,3.4266],[39.3417,3.2554],[39.3468,3.0701],[39.2893,3.0353],[39.2022,2.9569],[39.1474,2.9528],[39.1236,2.9313],[39.1118,2.8833],[39.0651,2.8823],[39.066,2.7376],[39.0359,2.6899],[39.0434,2.676],[38.9767,2.5669],[38.8886,2.5426],[38.9347,2.3728],[38.9261,2.2841],[38.9358,2.1612],[38.9626,2.0974]]]}},{"type":"Feature","properties":{"county":"West Pokot","region_id":null},"geometry":{"type":"Polygon","coordinates":[[[34.9428,2.4555],[34.9004,2.4399],[34.8791,2.3979],[34.9751,2.1629],[34.9923,2.0929],[34.9638,2.0637],[34.9839,1.9806],[35.0258,1.9242],[35.0005,1.8383],[34.9878,1.6652],[34.9422,1.5762],[34.9023,1.5524],[34.8868,1.5558],[34.8636,1.5266],[34.8584,1.4526],[34.8405,1.4528],[34.7886,1.4163],[34.804,1.3734],[34.7932,1.3608],[34.8299,1.3092],[34.8322,1.2716],[34.8223,1.2626],[34.9107,1.2842],[34.9061,1.2521],[35.0121,1.2542],[35.0444,1.2154],[35.0417,1.1945],[35.0831,1.1692],[35.087,1.1833],[35.1242,1.1838],[35.1521,1.1994],[35.3245,1.1164],[35.5439,1.2851],[35.5758,1.2915],[35.608,1.2801],[35.6392,1.3032],[35.696,1.319],[35.687,1.3572],[35.7109,1.4008],[35.7058,1.4384],[35.7827,1.5598],[35.7932,1.6236],[35.7763,1.6435],[35.7924,1.6643],[35.6018,1.7582],[35.5099,1.7639],[35.4635,1.8082],[35.4637,1.8423],[35.365,1.9289],[35.3792,1.948],[35.3658,2.0362],[35.298,2.2707],[35.2711,2.3197],[35.2321,2.3512],[35.2249,2.5299],[35.1744,2.6368],[35.1324,2.6489],[35.1048,2.5548],[35.1075,2.5051],[35.0692,2.4627],[35.0161,2.5676],[34.997,2.4787],[35.0221,2.4433],[35.0087,2.4247],[35.0117,2.4036],[34.9428,2.4555]]]}},{"type":"Feature","properties":{"county":"Samburu","region_id":"asal_north"},"geometry":{"type":"Polygon","coordinates":[[[36.3921,0.9188],[36.3963,0.9045],[36.4174,0.9022],[36.4445,0.8716],[36.4872,0.85],[36.4824,0.8135],[36.7084,0.8144],[36.7347,0.825],[36.7561,0.8584],[36.7934,0.8694],[36.8156,0.8559],[36.8658,0.7377],[36.8811,0.7332],[36.9027,0.7403],[36.9167,0.7293],[36.9346,0.7542],[36.9663,0.7421],[37.0579,0.7722],[37.0695,0.7658],[37.0724,0.7791],[37.1031,0.7876],[37.1686,0.7427],[37.2199,0.7394],[37.2565,0.7642],[37.3002,0.7209],[37.3427,0.6458],[37.3542,0.6003],[37.3912,0.5766],[37.4703,0.5933],[37.5143,0.5681],[37.5813,0.5729],[37.5835,0.5884],[37.6333,0.5975],[37.6386,0.6214],[37.6812,0.6426],[37.6907,0.6631],[37.7091,0.6672],[37.7238,0.6547],[37.7467,0.6762],[37.8321,0.6798],[37.8768,0.7442],[37.9126,0.712],[37.9717,0.7545],[38.0115,0.8037],[38.05,0.7786],[38.0809,0.7814],[38.0475,0.805],[38.0308,1.0851],[37.9482,1.1943],[37.9506,1.387],[37.8521,1.4591],[37.8427,1.4258],[37.6529,1.4009],[37.6215,1.3769],[37.6067,1.3762],[37.598,1.3916],[37.5794,1.3653],[37.3505,1.7421],[37.3061,1.7655],[37.266,1.8788],[37.2445,1.8827],[37.1909,1.9304],[37.1795,1.9592],[37.0967,1.9832],[37.0072,1.9851],[36.95,2.0251],[36.9158,2.018],[36.92,2.0995],[36.8969,2.1917],[36.8435,2.2748],[36.754,2.5166],[36.6997,2.5124],[36.6986,2.4551],[36.6843,2.4579],[36.6435,2.4183],[36.6379,2.3918],[36.6392,2.411],[36.6221,2.4155],[36.6089,2.3966],[36.6009,2.4057],[36.601,2.36],[36.7237,2.301],[36.7228,2.275],[36.7066,2.2619],[36.7138,2.2478],[36.7008,2.1988],[36.6362,2.1639],[36.6097,2.1626],[36.5635,2.1038],[36.5681,2.058],[36.5448,2.0305],[36.5265,1.9535],[36.5385,1.957],[36.5365,1.8987],[36.5116,1.8765],[36.5121,1.8496],[36.523,1.8464],[36.5136,1.816],[36.5295,1.8052],[36.5165,1.7651],[36.5076,1.7714],[36.5253,1.7549],[36.5009,1.7086],[36.4842,1.7028],[36.4655,1.6147],[36.4403,1.6156],[36.3935,1.5227],[36.372,1.5479],[36.3668,1.5957],[36.3601,1.572],[36.3399,1.578],[36.2961,1.5332],[36.2886,1.4639],[36.3182,1.4699],[36.3559,1.436],[36.3895,1.445],[36.4276,1.4081],[36.4473,1.4121],[36.4665,1.3986],[36.4582,1.3687],[36.3905,1.3129],[36.4194,1.2945],[36.4378,1.3027],[36.4535,1.2616],[36.4463,1.2511],[36.395,1.2768],[36.3877,1.2634],[36.4039,1.2514],[36.4134,1.2596],[36.4216,1.2367],[36.394,1.22],[36.387,1.1866],[36.3922,1.1732],[36.4186,1.1866],[36.4423,1.1729],[36.4373,1.0865],[36.4594,0.9784],[36.4396,1.0025],[36.4427,0.9711],[36.3921,0.9188]]]}},{"type":"Feature","properties":{"county":"Isiolo","region_id":"asal_north"},"geometry":{"type":"Polygon","coordinates":[[[37.9453,1.2629],[37.9482,1.1943],[38.0308,1.0851],[38.0475,0.805],[38.0804,0.7804],[38.05,0.7786],[38.0115,0.8037],[37.9717,0.7545],[37.9126,0.712],[37.8768,0.7442],[37.8321,0.6798],[37.7467,0.6762],[37.7238,0.6547],[37.7091,0.6672],[37.6907,0.6631],[37.6812,0.6426],[37.6386,0.6214],[37.6328,0.5972],[37.5835,0.5884],[37.5809,0.5728],[37.545,0.578],[37.5319,0.5652],[37.4703,0.5933],[37.3912,0.5766],[37.3649,0.587],[37.3002,0.7209],[37.2574,0.7636],[37.2199,0.7394],[37.1686,0.7427],[37.1022,0.7875],[37.0724,0.7791],[37.0695,0.7658],[37.0579,0.7722],[36.9806,0.7445],[36.9344,0.754],[36.9237,0.6653],[36.9096,0.6327],[36.8671,0.5969],[36.8644,0.5658],[37.369,0.5116],[37.3483,0.4395],[37.3919,0.3531],[37.3858,0.2744],[37.3995,0.2962],[37.4278,0.2978],[37.5371,0.264],[37.5527,0.324],[37.5808,0.3275],[37.6032,0.3607],[37.5988,0.4015],[37.5856,0.4017],[37.5814,0.42],[37.5865,0.4812],[37.826,0.5618],[38.0613,0.6674],[38.1765,0.3301],[38.1959,0.3225],[38.1965,0.2287],[38.2442,0.2071],[38.2987,0.1601],[38.3082,0.1136],[38.3298,0.0967],[38.3248,0.078],[38.3499,0.0627],[38.3579,0.022],[38.4016,-0.0141],[38.4123,-0.0633],[38.4625,-0.0839],[38.49,-0.0588],[38.5216,-0.0618],[38.5549,-0.0155],[38.6128,-0.0287],[38.6397,-0.0521],[38.6832,-0.0537],[38.6905,-0.0397],[38.7146,-0.06],[38.7687,-0.0687],[38.7534,-0.0472],[38.7294,0.0682],[38.7334,0.1388],[38.7567,0.1731],[38.7556,0.1924],[38.6764,0.4946],[38.6617,0.5091],[38.705,0.5064],[38.7224,0.511],[38.7244,0.5245],[38.7663,0.511],[38.825,0.5796],[38.8594,0.5992],[38.9105,0.599],[38.9398,0.6284],[39.0097,0.6244],[39.0259,0.6638],[39.0535,0.6858],[39.0851,0.6751],[39.101,0.6891],[39.1409,0.6904],[39.1752,0.7209],[39.1792,0.7512],[39.2357,0.8442],[39.3116,0.924],[39.4606,0.9945],[39.2743,1.4678],[39.4472,1.5272],[39.4,1.553],[39.3453,1.626],[39.3083,1.6545],[39.2138,1.6974],[39.1311,1.8662],[39.0685,1.9146],[38.9942,2.0096],[38.9853,2.0696],[38.9626,2.0974],[38.3832,1.7613],[38.3397,1.5774],[37.9453,1.2629]]]}},{"type":"Feature","properties":{"county":"Baringo","region_id":null},"geometry":{"type":"Polygon","coordinates":[[[35.7919,1.6636],[35.7763,1.6435],[35.7932,1.6236],[35.7827,1.5598],[35.7589,1.5073],[35.7188,1.4722],[35.7045,1.4278],[35.7109,1.4008],[35.6871,1.3583],[35.6992,1.327],[35.6944,1.2833],[35.7062,1.2714],[35.6958,1.2035],[35.7087,1.1494],[35.6979,1.1049],[35.6715,1.0743],[35.6709,1.0453],[35.6426,1.0252],[35.6333,0.9936],[35.6364,0.9184],[35.6229,0.8688],[35.6427,0.8213],[35.6201,0.7393],[35.6354,0.7017],[35.6253,0.6797],[35.6054,0.6742],[35.6092,0.6462],[35.5959,0.6137],[35.6127,0.5923],[35.6022,0.535],[35.6129,0.5109],[35.6308,0.503],[35.6595,0.3863],[35.7216,0.351],[35.7075,0.2592],[35.7209,0.2129],[35.6913,0.1896],[35.6947,0.17],[35.5874,0.1695],[35.5727,0.0673],[35.5407,0.0899],[35.5412,0.0476],[35.5264,0.0468],[35.5228,0.0154],[35.5434,-0.0085],[35.5825,-0.0078],[35.6322,-0.0361],[35.6493,-0.0811],[35.6887,-0.076],[35.6923,-0.1096],[35.7289,-0.1602],[35.7247,-0.2124],[35.7556,-0.2264],[35.7897,-0.1621],[35.7892,-0.1116],[35.8058,-0.1001],[35.8205,-0.1195],[35.8755,-0.036],[35.8991,-0.048],[35.9164,-0.0819],[35.9586,-0.032],[35.9764,0.0151],[35.9281,0.0698],[35.9389,0.0955],[35.9594,0.0877],[35.9637,0.0572],[35.9961,0.0599],[36.0053,0.0313],[36.0395,0.0211],[36.0504,0.0046],[36.0926,-0.0137],[36.1112,0.0061],[36.1043,0.0614],[36.1264,0.0594],[36.1471,0.1857],[36.1967,0.1993],[36.1775,0.2284],[36.215,0.2522],[36.1838,0.3144],[36.294,0.5653],[36.2757,0.6317],[36.3446,0.6593],[36.4045,0.7172],[36.4733,0.8385],[36.4887,0.8468],[36.4174,0.9022],[36.3949,0.9057],[36.3881,0.9479],[36.3501,0.9661],[36.3404,0.9931],[36.3169,0.9913],[36.174,1.1709],[36.0966,1.1694],[35.7919,1.6636]]]}},{"type":"Feature","properties":{"county":"Elgeyo-Marakwet","region_id":null},"geometry":{"type":"Polygon","coordinates":[[[35.1521,1.1994],[35.2425,1.0745],[35.3594,1.0184],[35.3416,1.0059],[35.3513,0.9788],[35.336,0.9672],[35.3434,0.9464],[35.4183,0.9375],[35.4138,0.9072],[35.4678,0.8997],[35.4551,0.8749],[35.487,0.8757],[35.4805,0.8196],[35.4973,0.8182],[35.504,0.7661],[35.492,0.7266],[35.5025,0.7027],[35.4085,0.7038],[35.4798,0.589],[35.4606,0.4499],[35.4815,0.39],[35.4681,0.3694],[35.496,0.3414],[35.4994,0.2775],[35.4853,0.2509],[35.5051,0.2249],[35.5398,0.2253],[35.5117,0.1888],[35.5665,0.197],[35.5856,0.1695],[35.6947,0.17],[35.6913,0.1896],[35.7209,0.2129],[35.7075,0.2592],[35.7217,0.3508],[35.6595,0.3863],[35.6308,0.503],[35.6129,0.5109],[35.6022,0.535],[35.6127,0.5923],[35.5959,0.6137],[35.6092,0.6462],[35.6054,0.6742],[35.6253,0.6797],[35.6354,0.7017],[35.6201,0.7393],[35.6427,0.8213],[35.6229,0.8688],[35.6364,0.9184],[35.6333,0.9936],[35.6426,1.0252],[35.6709,1.0453],[35.6715,1.0743],[35.6979,1.1049],[35.7087,1.1494],[35.6958,1.2035],[35.7063,1.2707],[35.6944,1.2833],[35.696,1.319],[35.6392,1.3032],[35.608,1.2801],[35.5758,1.2915],[35.5439,1.2851],[35.3245,1.1164],[35.1521,1.1994]]]}},{"type":"Feature","properties":{"county":"Trans Nzoia","region_id":null},"geometry":{"type":"Polygon","coordinates":[[[34.8223,1.2626],[34.7943,1.2196],[34.6712,1.208],[34.6384,1.172],[34.5808,1.1503],[34.614,1.1084],[34.6639,1.0838],[34.6535,1.0584],[34.7386,0.9373],[34.798,0.91],[34.7856,0.8886],[34.8083,0.8043],[34.9321,0.8525],[34.9416,0.8699],[35.0386,0.9006],[35.0764,0.8957],[35.1019,0.8731],[35.1282,0.9187],[35.2219,0.9186],[35.2539,0.9397],[35.2926,0.9141],[35.3051,0.8903],[35.3294,0.9316],[35.3489,0.9198],[35.3596,0.9444],[35.3434,0.9464],[35.336,0.9672],[35.3513,0.9788],[35.3416,1.0059],[35.3594,1.0184],[35.2425,1.0745],[35.1521,1.1994],[35.1242,1.1838],[35.087,1.1833],[35.0831,1.1692],[35.0417,1.1945],[35.0444,1.2154],[35.0121,1.2542],[34.9061,1.2521],[34.9107,1.2842],[34.8223,1.2626]]]}},{"type":"Feature","properties":{"county":"Bungoma","region_id":null},"geometry":{"type":"Polygon","coordinates":[[[34.5808,1.1503],[34.5775,1.1001],[34.5277,1.1216],[34.4936,1.0444],[34.4791,0.9396],[34.45,0.9012],[34.446,0.8644],[34.4138,0.8433],[34.4121,0.8116],[34.3851,0.8046],[34.3605,0.7784],[34.4001,0.7565],[34.4241,0.7671],[34.4336,0.7408],[34.4315,0.7264],[34.4032,0.7289],[34.4171,0.6596],[34.3831,0.6439],[34.3699,0.6066],[34.377,0.5788],[34.3683,0.5618],[34.4083,0.5079],[34.3859,0.4954],[34.3896,0.4695],[34.4168,0.4757],[34.4393,0.4632],[34.4827,0.4843],[34.4978,0.4578],[34.5323,0.4428],[34.5513,0.4699],[34.5799,0.4538],[34.59,0.4195],[34.5918,0.4448],[34.6161,0.4428],[34.6271,0.4628],[34.6427,0.4503],[34.6665,0.4594],[34.6752,0.4827],[34.7014,0.5066],[34.7266,0.5106],[34.764,0.5629],[34.8096,0.5856],[34.7985,0.5989],[34.8308,0.6239],[34.844,0.6681],[34.8618,0.6838],[34.9094,0.6858],[34.9286,0.7072],[34.9286,0.7401],[34.9764,0.7554],[35.0266,0.7434],[35.0625,0.7628],[35.066,0.7819],[35.0234,0.8301],[35.012,0.8601],[35.0177,0.8875],[34.9647,0.8793],[34.9321,0.8525],[34.8083,0.8043],[34.7856,0.8886],[34.798,0.91],[34.7386,0.9373],[34.6535,1.0584],[34.6639,1.0838],[34.614,1.1084],[34.5808,1.1503]]]}},{"type":"Feature","properties":{"county":"Garissa","region_id":"asal_northeast"},"geometry":{"type":"Polygon","coordinates":[[[39.4607,0.9947],[39.3116,0.924],[39.2357,0.8442],[39.1792,0.7512],[39.1752,0.7209],[39.1409,0.6904],[39.101,0.6891],[39.0851,0.6751],[39.0535,0.6858],[39.0259,0.6638],[39.0097,0.6244],[38.9398,0.6284],[38.9105,0.599],[38.8594,0.5992],[38.825,0.5796],[38.7663,0.511],[38.7244,0.5245],[38.7224,0.511],[38.705,0.5064],[38.6617,0.5091],[38.6764,0.4946],[38.7565,0.1867],[38.7314,0.1214],[38.7391,0.0062],[38.7614,-0.0636],[38.8288,-0.0922],[38.8995,-0.0955],[38.9201,-0.0858],[38.9398,-0.099],[38.967,-0.0823],[38.972,-0.059],[39.0202,-0.0429],[39.0359,-0.0536],[39.0653,-0.0463],[39.1357,-0.1305],[39.1634,-0.1266],[39.2026,-0.1427],[39.2264,-0.13],[39.2573,-0.1465],[39.3133,-0.133],[39.3278,-0.1455],[39.3247,-0.1578],[39.3624,-0.1627],[39.3841,-0.1905],[39.4273,-0.1898],[39.4771,-0.2415],[39.4979,-0.2483],[39.5174,-0.282],[39.5126,-0.2982],[39.5427,-0.2902],[39.5617,-0.3287],[39.5875,-0.3414],[39.6022,-0.4096],[39.6142,-0.4098],[39.6109,-0.4398],[39.6353,-0.4573],[39.6306,-0.4899],[39.6686,-0.5316],[39.6633,-0.5489],[39.6864,-0.5516],[39.6969,-0.5916],[39.7387,-0.5876],[39.7494,-0.6051],[39.7761,-0.6126],[39.7686,-0.6293],[39.7795,-0.6618],[39.7999,-0.671],[39.798,-0.6912],[39.8125,-0.7058],[39.808,-0.7358],[39.824,-0.7425],[39.8087,-0.7712],[39.8342,-0.7929],[39.8254,-0.8038],[39.8422,-0.8044],[39.8415,-0.8525],[39.8491,-0.8427],[39.859,-0.8492],[39.8499,-0.8878],[39.8607,-0.9261],[39.8785,-0.9367],[39.8694,-0.9583],[39.8818,-0.951],[39.8803,-0.9693],[39.8936,-0.9736],[39.8858,-1.0006],[39.8985,-1.0068],[39.9259,-1.0777],[39.9324,-1.1291],[39.9558,-1.1445],[39.9798,-1.2024],[40.0004,-1.2152],[39.9953,-1.2384],[40.008,-1.2401],[40.0023,-1.3614],[40.0343,-1.4326],[40.0326,-1.4874],[40.0873,-1.4743],[40.1149,-1.5529],[40.154,-1.6078],[40.1582,-1.6973],[40.1708,-1.7239],[40.1577,-1.7638],[40.163,-1.8234],[40.1875,-1.8629],[40.186,-1.9598],[40.2079,-2.0329],[40.9029,-1.7145],[41.562,-1.6587],[41.5622,-1.5975],[40.9924,-0.8291],[40.9918,0.4644],[40.8626,0.3789],[40.7731,0.354],[40.7157,0.3201],[40.6818,0.2584],[40.6477,0.2321],[40.6121,0.2328],[40.5862,0.2154],[40.5332,0.2263],[40.5073,0.1928],[40.4739,0.1865],[40.4022,0.1839],[40.3313,0.1994],[40.2334,0.2526],[40.1609,0.3259],[40.0596,0.3926],[39.9791,0.4097],[39.905,0.4621],[39.8747,0.4583],[39.8503,0.4771],[39.7997,0.4828],[39.7329,0.5259],[39.665,0.6145],[39.6462,0.6579],[39.5635,0.7572],[39.4925,0.9622],[39.4607,0.9947]]]}},{"type":"Feature","properties":{"county":"Uasin Gishu","region_id":null},"geometry":{"type":"Polygon","coordinates":[[[35.5874,0.1695],[35.5665,0.197],[35.5117,0.1888],[35.5396,0.2258],[35.5051,0.2249],[35.4853,0.2509],[35.4994,0.2775],[35.496,0.3414],[35.4681,0.3694],[35.4815,0.39],[35.4606,0.4499],[35.4798,0.589],[35.4085,0.7038],[35.5025,0.7027],[35.492,0.7266],[35.504,0.7661],[35.4973,0.8182],[35.4805,0.8196],[35.487,0.8758],[35.4551,0.8749],[35.4678,0.8997],[35.4138,0.9072],[35.4183,0.9375],[35.385,0.9436],[35.378,0.9353],[35.3596,0.9444],[35.3489,0.9198],[35.3294,0.9316],[35.3051,0.8903],[35.2926,0.9141],[35.2539,0.9397],[35.2219,0.9186],[35.1275,0.9185],[35.112,0.8922],[35.1114,0.8546],[35.124,0.8195],[35.1454,0.8265],[35.154,0.6611],[35.1125,0.6406],[35.103,0.6468],[35.0852,0.6295],[35.0372,0.6415],[35.027,0.6138],[34.9978,0.6359],[34.92,0.5914],[34.8889,0.6056],[34.896,0.5992],[34.8503,0.5457],[35.0444,0.5615],[35.0987,0.5391],[35.1054,0.5546],[35.1395,0.5347],[35.1652,0.5462],[35.1598,0.5042],[35.1392,0.4717],[35.3032,0.2113],[35.34,0.1938],[35.3359,0.1431],[35.3708,0.1272],[35.386,0.1019],[35.4013,0.108],[35.4348,0.0255],[35.4706,0.0199],[35.4591,0.0106],[35.5228,0.0154],[35.5264,0.0468],[35.5412,0.0476],[35.5407,0.0899],[35.5727,0.0673],[35.5874,0.1695]]]}},{"type":"Feature","properties":{"county":"Kakamega","region_id":null},"geometry":{"type":"Polygon","coordinates":[[[35.0177,0.8875],[35.0122,0.8596],[35.0266,0.8247],[35.0625,0.7948],[35.0628,0.7631],[35.0236,0.7429],[34.9764,0.7554],[34.9286,0.7401],[34.9256,0.701],[34.906,0.6847],[34.8597,0.683],[34.8372,0.6566],[34.8308,0.6239],[34.7986,0.5991],[34.8096,0.5856],[34.764,0.5629],[34.7266,0.5106],[34.7014,0.5066],[34.6752,0.4827],[34.6665,0.4594],[34.6427,0.4503],[34.6271,0.4628],[34.6161,0.4428],[34.5921,0.445],[34.59,0.4195],[34.5777,0.456],[34.5513,0.4699],[34.5323,0.4428],[34.4978,0.4578],[34.4827,0.4843],[34.4397,0.4632],[34.4095,0.4763],[34.3623,0.4577],[34.3612,0.4371],[34.3433,0.4255],[34.4234,0.3745],[34.4021,0.3628],[34.3707,0.3066],[34.3969,0.2854],[34.3895,0.2754],[34.4014,0.2616],[34.3981,0.2341],[34.3838,0.2293],[34.3846,0.182],[34.4448,0.2186],[34.4514,0.2068],[34.4259,0.1869],[34.4417,0.168],[34.4249,0.1526],[34.4819,0.1516],[34.4817,0.1384],[34.4567,0.1307],[34.4801,0.1153],[34.4736,0.1026],[34.4932,0.1022],[34.5003,0.1276],[34.5085,0.1183],[34.5416,0.1386],[34.5554,0.128],[34.545,0.1134],[34.5608,0.1069],[34.5603,0.0939],[34.6202,0.1267],[34.6825,0.1215],[34.7383,0.1491],[34.7473,0.136],[34.7855,0.1596],[34.8155,0.1618],[34.8109,0.184],[34.8458,0.1831],[34.8922,0.2068],[34.903,0.1956],[34.9251,0.1992],[34.9415,0.207],[34.9552,0.241],[34.9772,0.2404],[34.9353,0.3571],[34.954,0.3668],[34.956,0.415],[34.9063,0.5026],[34.8503,0.5457],[34.896,0.5992],[34.8889,0.6056],[34.92,0.5914],[34.9978,0.6359],[35.027,0.6138],[35.0372,0.6415],[35.0852,0.6295],[35.103,0.6468],[35.1125,0.6406],[35.1541,0.6617],[35.1454,0.8265],[35.124,0.8195],[35.112,0.8798],[35.1011,0.8733],[35.0509,0.9007],[35.0177,0.8875]]]}},{"type":"Feature","properties":{"county":"Laikipia","region_id":null},"geometry":{"type":"Polygon","coordinates":[[[36.4887,0.8468],[36.4733,0.8385],[36.4045,0.7172],[36.3446,0.6593],[36.2757,0.6317],[36.294,0.5653],[36.1838,0.3144],[36.215,0.2522],[36.2019,0.2347],[36.2357,0.2091],[36.2837,0.1275],[36.2869,0.1115],[36.2551,0.0562],[36.265,0.0263],[36.2555,-0.022],[36.2927,0.0119],[36.2986,0.0052],[36.3456,0.031],[36.3364,0.0628],[36.3488,0.0705],[36.3848,0.0317],[36.4239,0.046],[36.4007,0.0596],[36.4411,0.0915],[36.4625,0.1403],[36.5104,0.0851],[36.5213,0.0487],[36.5738,0.0708],[36.5992,0.0034],[36.6346,0.0162],[36.6495,-0.0169],[36.5798,-0.0223],[36.5446,-0.0684],[36.5574,-0.0807],[36.5522,-0.0915],[36.5732,-0.1052],[36.6329,-0.1087],[36.6538,-0.1542],[36.7632,-0.1093],[36.8291,-0.1036],[36.829,-0.1357],[36.8596,-0.1435],[36.8691,-0.1778],[36.8376,-0.1977],[36.8547,-0.2543],[36.8688,-0.249],[36.9854,-0.2962],[36.9958,-0.2713],[36.9881,-0.2557],[37.0116,-0.2318],[37.0168,-0.1808],[37.0044,-0.1768],[37.0067,-0.1503],[36.9836,-0.135],[36.977,-0.0708],[37.0244,-0.0491],[37.0769,0.0098],[37.1237,-0.0545],[37.1315,-0.0298],[37.0881,0.0226],[37.223,0.0767],[37.235,0.1025],[37.2534,0.0981],[37.3072,0.1797],[37.3486,0.1963],[37.367,0.2465],[37.3597,0.2537],[37.394,0.2894],[37.3919,0.3531],[37.3483,0.4395],[37.369,0.5116],[36.8644,0.5658],[36.8671,0.5969],[36.9096,0.6327],[36.9237,0.6653],[36.9319,0.7429],[36.914,0.7286],[36.9032,0.7402],[36.8658,0.7377],[36.8156,0.8559],[36.7934,0.8694],[36.7561,0.8584],[36.7347,0.825],[36.7084,0.8144],[36.4824,0.8135],[36.4887,0.8468]]]}},{"type":"Feature","properties":{"county":"Busia","region_id":null},"geometry":{"type":"Polygon","coordinates":[[[34.3605,0.7784],[34.313,0.7637],[34.3128,0.6973],[34.2783,0.6809],[34.2756,0.6423],[34.2003,0.6282],[34.1858,0.6069],[34.1376,0.5858],[34.1171,0.5233],[34.1208,0.4804],[34.0898,0.4563],[34.1089,0.3782],[34.1003,0.3499],[34.0589,0.3247],[34.0423,0.2768],[34.0259,0.2691],[33.9139,0.1114],[33.9505,-0.026],[34.0194,-0.027],[34.0421,-0.0001],[34.0718,0.1196],[34.0999,0.1358],[34.1032,0.1255],[34.1142,0.1452],[34.1055,0.1869],[34.1161,0.242],[34.1386,0.2583],[34.1588,0.3005],[34.2045,0.2601],[34.2076,0.2883],[34.2374,0.2897],[34.256,0.3149],[34.3347,0.3112],[34.3619,0.2978],[34.4021,0.3628],[34.4234,0.3745],[34.3433,0.4255],[34.3612,0.4371],[34.3623,0.4577],[34.3906,0.4627],[34.3859,0.4954],[34.4086,0.5046],[34.3683,0.5618],[34.377,0.5788],[34.3696,0.604],[34.3831,0.6439],[34.4171,0.6596],[34.4032,0.7289],[34.4315,0.7264],[34.4337,0.7378],[34.4241,0.7671],[34.4001,0.7565],[34.3605,0.7784]]]}},{"type":"Feature","properties":{"county":"Meru","region_id":null},"geometry":{"type":"Polygon","coordinates":[[[37.3858,0.2744],[37.3597,0.2537],[37.367,0.2465],[37.3486,0.1963],[37.3072,0.1797],[37.2534,0.0981],[37.235,0.1025],[37.223,0.0767],[37.0881,0.0226],[37.1354,-0.0413],[37.3078,-0.1511],[37.5908,-0.1833],[37.6617,-0.2165],[37.6655,-0.2042],[37.7227,-0.2033],[37.7497,-0.1881],[37.7686,-0.156],[37.7966,-0.162],[37.8572,-0.121],[37.8495,-0.105],[37.8624,-0.0689],[37.8501,-0.0187],[37.8732,-0.0103],[37.8917,-0.0186],[37.9,0.0102],[37.936,0.0071],[37.964,0.0684],[38.0154,0.0614],[38.0425,0.0265],[38.0592,0.0247],[38.1146,0.0574],[38.192,0.0151],[38.2236,0.0126],[38.2461,-0.0188],[38.2886,-0.0223],[38.3007,-0.0479],[38.3291,-0.0653],[38.346,-0.0609],[38.3815,-0.0855],[38.4207,-0.0693],[38.4016,-0.0141],[38.3579,0.022],[38.3499,0.0627],[38.3248,0.078],[38.3298,0.0967],[38.3082,0.1136],[38.2987,0.1601],[38.2442,0.2071],[38.1965,0.2287],[38.1959,0.3225],[38.1765,0.3301],[38.0613,0.6674],[37.826,0.5618],[37.5865,0.4812],[37.5814,0.42],[37.5856,0.4017],[37.5988,0.4015],[37.6032,0.3607],[37.5808,0.3275],[37.5527,0.324],[37.5371,0.264],[37.4278,0.2978],[37.3995,0.2962],[37.3858,0.2744]]]}},{"type":"Feature","properties":{"county":"Nandi","region_id":null},"geometry":{"type":"Polygon","coordinates":[[[34.8503,0.5457],[34.9063,0.5026],[34.956,0.415],[34.954,0.3668],[34.9353,0.3571],[34.9772,0.2404],[34.9552,0.241],[34.9415,0.207],[34.9279,0.2073],[34.915,0.1551],[34.8591,0.1208],[34.8593,0.0838],[34.8375,0.0363],[34.8104,0.0369],[34.7624,-0.0036],[34.7574,0.0093],[34.7407,0.0058],[34.7506,-0.0331],[34.7633,-0.0175],[34.781,-0.0214],[34.8034,0.0101],[34.8307,0.0239],[34.8037,-0.0129],[34.809,-0.0228],[34.9212,-0.0268],[34.9237,-0.0367],[34.9894,-0.0201],[35.05,-0.0356],[35.0656,-0.0688],[35.1014,-0.0267],[35.1003,-0.0037],[35.1518,-0.0392],[35.2061,-0.0292],[35.221,-0.0376],[35.2265,-0.1066],[35.3079,-0.0867],[35.341,-0.1095],[35.3716,-0.1103],[35.424,-0.0782],[35.4037,-0.0245],[35.4135,0.0052],[35.4375,0.0188],[35.4038,0.1053],[35.386,0.1019],[35.3708,0.1272],[35.3359,0.1431],[35.34,0.1938],[35.3032,0.2113],[35.1392,0.4717],[35.1598,0.5042],[35.1652,0.5462],[35.1395,0.5347],[35.1054,0.5546],[35.0987,0.5391],[35.0444,0.5615],[34.8503,0.5457]]]}},{"type":"Feature","properties":{"county":"Siaya","region_id":null},"geometry":{"type":"Polygon","coordinates":[[[34.3707,0.3066],[34.3619,0.2978],[34.3336,0.3114],[34.2499,0.3134],[34.2374,0.2897],[34.2076,0.2883],[34.2045,0.2601],[34.1588,0.3005],[34.1386,0.2583],[34.1165,0.2429],[34.1055,0.1869],[34.1142,0.1452],[34.1032,0.1255],[34.0999,0.1358],[34.0718,0.1196],[34.0421,-0.0001],[34.0194,-0.027],[33.9505,-0.026],[33.9822,-0.1294],[33.9477,-0.3372],[34.2398,-0.3375],[34.2822,-0.4131],[34.3076,-0.4254],[34.4834,-0.2993],[34.4116,-0.0784],[34.542,-0.0065],[34.5373,0.0054],[34.5602,0.0469],[34.5608,0.1069],[34.545,0.1133],[34.5554,0.1276],[34.5416,0.1386],[34.5085,0.1183],[34.5003,0.1276],[34.4932,0.1022],[34.4736,0.1026],[34.4801,0.1153],[34.4567,0.1307],[34.4817,0.1384],[34.4819,0.1516],[34.4249,0.1526],[34.4417,0.168],[34.4259,0.1869],[34.4514,0.2068],[34.4448,0.2186],[34.3851,0.1806],[34.3838,0.2293],[34.3981,0.2341],[34.4014,0.2616],[34.3895,0.2754],[34.3969,0.2854],[34.3707,0.3066]]]}},{"type":"Feature","properties":{"county":"Nakuru","region_id":null},"geometry":{"type":"Polygon","coordinates":[[[35.6402,-0.061],[35.615,-0.0844],[35.6229,-0.103],[35.5969,-0.129],[35.6098,-0.159],[35.6389,-0.1506],[35.6695,-0.1632],[35.6517,-0.2577],[35.6302,-0.2878],[35.6037,-0.2936],[35.5913,-0.2775],[35.5801,-0.308],[35.5682,-0.3034],[35.5715,-0.2822],[35.5281,-0.2596],[35.5246,-0.2701],[35.4125,-0.3024],[35.5869,-0.5884],[35.6008,-0.6716],[35.6453,-0.7025],[35.6803,-0.6522],[35.7087,-0.5539],[35.7375,-0.531],[35.7712,-0.5369],[35.7992,-0.456],[35.8107,-0.4575],[35.8137,-0.4766],[35.8352,-0.4666],[35.8303,-0.4945],[35.903,-0.5474],[35.9435,-0.5552],[35.9814,-0.6303],[35.9493,-0.6657],[35.9148,-0.6352],[35.8756,-0.6371],[35.9288,-0.7056],[35.9459,-0.7143],[36.0111,-0.6635],[36.0286,-0.6789],[36.0975,-0.6396],[36.1003,-0.6759],[36.153,-0.7145],[36.1606,-0.7448],[36.1917,-0.7661],[36.1818,-0.7789],[36.1871,-0.8047],[36.1571,-0.837],[36.1846,-0.9155],[36.2035,-0.9335],[36.2625,-0.9132],[36.3339,-1.0494],[36.4893,-1.1225],[36.5337,-1.1559],[36.5883,-1.0634],[36.5954,-0.9917],[36.5725,-0.9423],[36.578,-0.9293],[36.5429,-0.9082],[36.5581,-0.8378],[36.517,-0.7113],[36.5397,-0.6965],[36.5172,-0.6239],[36.5099,-0.6096],[36.5009,-0.6238],[36.4648,-0.6307],[36.4498,-0.6131],[36.4464,-0.5712],[36.4002,-0.5727],[36.387,-0.442],[36.3588,-0.3797],[36.3102,-0.3907],[36.3074,-0.3719],[36.2732,-0.3949],[36.2613,-0.3441],[36.2293,-0.3435],[36.2225,-0.3566],[36.2086,-0.2743],[36.244,-0.2578],[36.21,-0.2053],[36.1984,-0.1401],[36.2197,-0.109],[36.2445,-0.1212],[36.265,0.0263],[36.2551,0.0562],[36.2869,0.1115],[36.2357,0.2091],[36.2019,0.2347],[36.1775,0.2284],[36.1967,0.1993],[36.1471,0.1857],[36.1264,0.0594],[36.1043,0.0614],[36.1112,0.0061],[36.0926,-0.0137],[36.0053,0.0313],[35.9961,0.0599],[35.9637,0.0572],[35.9594,0.0877],[35.9389,0.0955],[35.9281,0.0698],[35.9742,0.0207],[35.9677,-0.0159],[35.9264,-0.0775],[35.9164,-0.0819],[35.8991,-0.048],[35.8755,-0.036],[35.8205,-0.1195],[35.8058,-0.1001],[35.7892,-0.1116],[35.7897,-0.1621],[35.7632,-0.2249],[35.7247,-0.2124],[35.7289,-0.1602],[35.6923,-0.1096],[35.6887,-0.076],[35.6493,-0.0811],[35.6402,-0.061]]]}},{"type":"Feature","properties":{"county":"Vihiga","region_id":null},"geometry":{"type":"Polygon","coordinates":[[[34.5603,0.0939],[34.5602,0.0469],[34.5341,-0.0154],[34.5636,-0.0163],[34.5642,-0.0398],[34.5825,-0.0312],[34.5889,0.0012],[34.6038,0.0124],[34.6628,-0.0144],[34.6906,-0.0106],[34.6867,-0.0265],[34.7276,-0.0065],[34.7471,-0.0247],[34.7425,0.0072],[34.7574,0.0093],[34.7624,-0.0036],[34.8104,0.0369],[34.8375,0.0363],[34.8593,0.0838],[34.8591,0.1208],[34.915,0.1551],[34.9251,0.1992],[34.8597,0.199],[34.8458,0.1831],[34.8109,0.184],[34.8155,0.1618],[34.7855,0.1596],[34.7473,0.136],[34.7383,0.1491],[34.6825,0.1215],[34.6202,0.1267],[34.5603,0.0939]]]}},{"type":"Feature","properties":{"county":"Nyandarua","region_id":null},"geometry":{"type":"Polygon","coordinates":[[[36.2555,-0.022],[36.2445,-0.1212],[36.2197,-0.109],[36.1984,-0.1401],[36.21,-0.2053],[36.244,-0.2578],[36.2086,-0.2743],[36.2225,-0.3566],[36.2293,-0.3435],[36.2613,-0.3441],[36.2732,-0.3949],[36.3074,-0.3719],[36.3102,-0.3907],[36.3588,-0.3797],[36.387,-0.442],[36.4002,-0.5727],[36.4464,-0.5712],[36.4498,-0.6131],[36.4648,-0.6307],[36.5009,-0.6238],[36.5099,-0.6096],[36.5397,-0.6965],[36.517,-0.7113],[36.5581,-0.8378],[36.5429,-0.9082],[36.5528,-0.92],[36.598,-0.8618],[36.586,-0.8265],[36.6186,-0.8298],[36.6083,-0.8056],[36.6503,-0.7646],[36.6856,-0.7648],[36.72,-0.8064],[36.7177,-0.7801],[36.7326,-0.7794],[36.7036,-0.6993],[36.7041,-0.6287],[36.669,-0.5756],[36.6546,-0.5167],[36.6624,-0.4653],[36.6486,-0.4614],[36.6503,-0.4359],[36.6225,-0.4038],[36.6304,-0.3895],[36.6012,-0.373],[36.6136,-0.3566],[36.6125,-0.3115],[36.6859,-0.1745],[36.6538,-0.1542],[36.6329,-0.1087],[36.5687,-0.1037],[36.5446,-0.0684],[36.5818,-0.0211],[36.6495,-0.0169],[36.6346,0.0162],[36.5992,0.0034],[36.5738,0.0708],[36.5213,0.0487],[36.5104,0.0851],[36.4625,0.1403],[36.4411,0.0915],[36.4007,0.0596],[36.4239,0.046],[36.3848,0.0317],[36.3488,0.0705],[36.3364,0.0628],[36.3456,0.031],[36.2986,0.0052],[36.2927,0.0119],[36.2555,-0.022]]]}},{"type":"Feature","properties":{"county":"Tharaka","region_id":"asal_eastern"},"geometry":{"type":"Polygon","coordinates":[[[37.3078,-0.1511],[37.5538,-0.3599],[37.6304,-0.3886],[37.662,-0.4212],[37.7203,-0.4498],[37.7688,-0.4483],[37.8457,-0.4031],[37.8866,-0.3421],[37.8908,-0.3929],[37.9254,-0.4271],[37.9521,-0.4252],[37.9695,-0.3968],[37.9676,-0.3634],[37.9977,-0.2663],[38.1137,-0.2752],[38.1434,-0.2393],[38.1625,-0.2349],[38.1858,-0.1523],[38.2064,-0.143],[38.2212,-0.1025],[38.2503,-0.0841],[38.2714,-0.093],[38.2876,-0.0843],[38.3091,-0.0515],[38.2886,-0.0223],[38.2461,-0.0188],[38.2236,0.0126],[38.192,0.0151],[38.1295,0.0529],[38.1136,0.0574],[38.083,0.0296],[38.0592,0.0247],[38.0425,0.0265],[38.0154,0.0614],[37.964,0.0684],[37.936,0.0071],[37.9,0.0102],[37.8917,-0.0186],[37.8732,-0.0103],[37.8501,-0.0187],[37.8624,-0.0689],[37.8495,-0.105],[37.8572,-0.121],[37.7966,-0.162],[37.7686,-0.156],[37.7497,-0.1881],[37.7227,-0.2033],[37.6655,-0.2042],[37.6617,-0.2165],[37.5908,-0.1833],[37.3078,-0.1511]]]}},{"type":"Feature","properties":{"county":"Kericho","region_id":null},"geometry":{"type":"Polygon","coordinates":[[[35.5228,0.0154],[35.4591,0.0106],[35.4652,0.0273],[35.4348,0.0255],[35.4037,-0.0245],[35.424,-0.0782],[35.3716,-0.1103],[35.341,-0.1095],[35.3079,-0.0867],[35.2265,-0.1066],[35.2533,-0.1205],[35.2703,-0.1526],[35.2774,-0.1448],[35.2803,-0.166],[35.3303,-0.1763],[35.3399,-0.2401],[35.3133,-0.2488],[35.2618,-0.2336],[35.2448,-0.2018],[35.2187,-0.1943],[35.2151,-0.1751],[35.1865,-0.1601],[35.155,-0.1663],[35.1283,-0.1561],[35.1039,-0.2017],[35.0635,-0.2157],[35.0525,-0.2944],[35.0082,-0.3387],[35.0123,-0.3914],[35.0448,-0.4468],[35.033,-0.4976],[35.0514,-0.4996],[35.0837,-0.4727],[35.1414,-0.4565],[35.1841,-0.4854],[35.2181,-0.4794],[35.2086,-0.4661],[35.232,-0.4223],[35.3014,-0.4254],[35.3314,-0.4046],[35.4095,-0.4051],[35.4511,-0.3654],[35.4125,-0.3024],[35.4693,-0.2777],[35.5246,-0.2701],[35.5281,-0.2596],[35.5715,-0.2822],[35.5682,-0.3034],[35.5801,-0.308],[35.5913,-0.2775],[35.6037,-0.2936],[35.6302,-0.2878],[35.6517,-0.2577],[35.6547,-0.2066],[35.6725,-0.1889],[35.6695,-0.1632],[35.6389,-0.1506],[35.6102,-0.1591],[35.5997,-0.1471],[35.5986,-0.1226],[35.6229,-0.103],[35.615,-0.0844],[35.6384,-0.0503],[35.5825,-0.0078],[35.5434,-0.0085],[35.5228,0.0154]]]}},{"type":"Feature","properties":{"county":"Kisumu","region_id":null},"geometry":{"type":"Polygon","coordinates":[[[34.7471,-0.0247],[34.7276,-0.0065],[34.6867,-0.0265],[34.6906,-0.0106],[34.6628,-0.0144],[34.6038,0.0124],[34.5758,-0.0359],[34.5613,-0.0353],[34.5628,-0.0158],[34.5341,-0.0154],[34.4605,-0.0424],[34.4116,-0.0784],[34.4834,-0.2993],[34.5324,-0.2717],[34.7064,-0.2581],[34.7546,-0.2895],[34.7601,-0.3136],[34.7855,-0.322],[34.7855,-0.3413],[34.8105,-0.3512],[34.8238,-0.3877],[34.8877,-0.4014],[34.915,-0.3851],[34.9141,-0.4031],[34.959,-0.416],[34.9869,-0.4131],[35.0123,-0.3914],[35.0082,-0.3387],[35.0525,-0.2944],[35.0635,-0.2157],[35.1039,-0.2017],[35.1283,-0.1561],[35.2038,-0.1659],[35.2187,-0.1943],[35.2448,-0.2018],[35.2704,-0.2378],[35.3137,-0.2488],[35.3422,-0.2365],[35.3303,-0.1763],[35.2803,-0.166],[35.2774,-0.1448],[35.2703,-0.1526],[35.2533,-0.1205],[35.2265,-0.1066],[35.221,-0.0376],[35.2061,-0.0292],[35.1518,-0.0392],[35.1003,-0.0037],[35.1014,-0.0267],[35.0656,-0.0688],[35.05,-0.0356],[34.9894,-0.0201],[34.9237,-0.0367],[34.9212,-0.0268],[34.809,-0.0228],[34.8037,-0.0129],[34.8307,0.0239],[34.8034,0.0101],[34.781,-0.0214],[34.7633,-0.0175],[34.7546,-0.0334],[34.7471,-0.0247]]]}},{"type":"Feature","properties":{"county":"Nyeri","region_id":null},"geometry":{"type":"Polygon","coordinates":[[[36.6575,-0.1531],[36.6859,-0.1745],[36.6125,-0.3115],[36.6136,-0.3566],[36.6012,-0.373],[36.6304,-0.3895],[36.6225,-0.4038],[36.6503,-0.4359],[36.6486,-0.4614],[36.6624,-0.4653],[36.6546,-0.5167],[36.669,-0.5756],[36.6968,-0.6224],[36.7068,-0.6247],[36.7047,-0.5902],[36.7211,-0.5717],[36.7779,-0.5664],[36.8041,-0.5706],[36.8601,-0.6081],[36.9213,-0.6093],[36.9865,-0.576],[37.0484,-0.5948],[37.1093,-0.6412],[37.1765,-0.6332],[37.1772,-0.6006],[37.1439,-0.5697],[37.1464,-0.5343],[37.168,-0.5071],[37.1617,-0.4918],[37.1768,-0.4829],[37.1748,-0.4425],[37.1997,-0.439],[37.3078,-0.1511],[37.1305,-0.0369],[37.1237,-0.0545],[37.0769,0.0098],[37.0244,-0.0491],[36.9766,-0.0719],[36.9836,-0.135],[37.0067,-0.1503],[37.0044,-0.1768],[37.0168,-0.1808],[37.0116,-0.2318],[36.9881,-0.2557],[36.9958,-0.2713],[36.9854,-0.2962],[36.8688,-0.249],[36.8547,-0.2543],[36.8376,-0.1977],[36.8691,-0.1778],[36.8596,-0.1435],[36.829,-0.1357],[36.8291,-0.1036],[36.7632,-0.1093],[36.6575,-0.1531]]]}},{"type":"Feature","properties":{"county":"Tana River","region_id":null},"geometry":{"type":"Polygon","coordinates":[[[38.4342,-0.0748],[38.8298,-0.7602],[38.9534,-1.0318],[38.9997,-1.6769],[38.9585,-1.7028],[39.0151,-1.914],[38.7952,-2.3397],[38.7371,-2.3658],[38.6848,-2.4132],[38.6265,-2.4105],[39.0792,-3.0504],[39.1273,-3.0192],[39.1321,-3.0414],[39.151,-3.045],[39.1631,-3.0657],[39.1744,-3.0568],[39.2174,-3.0729],[39.8897,-2.3101],[40.179,-2.7184],[40.1908,-2.7047],[40.1751,-2.703],[40.1821,-2.6812],[40.2019,-2.6791],[40.1879,-2.7235],[40.1961,-2.7326],[40.2905,-2.6131],[40.3407,-2.5872],[40.2676,-2.6427],[40.4003,-2.5605],[40.5161,-2.5277],[40.4935,-2.5183],[40.4443,-2.5319],[40.4629,-2.5028],[40.4737,-2.5093],[40.4659,-2.4985],[40.5094,-2.4968],[40.5109,-2.5195],[40.6063,-2.5575],[40.7306,-2.456],[40.6637,-2.4679],[40.4407,-2.3975],[40.2495,-2.3981],[40.2495,-2.2488],[40.186,-1.9598],[40.1875,-1.8629],[40.163,-1.8234],[40.1577,-1.7638],[40.1708,-1.7239],[40.1582,-1.6973],[40.154,-1.6078],[40.1149,-1.5529],[40.0873,-1.4743],[40.0326,-1.4874],[40.0343,-1.4326],[40.0023,-1.3614],[40.008,-1.2401],[39.9953,-1.2384],[40.0004,-1.2152],[39.9798,-1.2024],[39.9558,-1.1445],[39.9324,-1.1291],[39.9259,-1.0777],[39.8985,-1.0068],[39.8858,-1.0006],[39.8936,-0.9736],[39.8803,-0.9693],[39.8818,-0.951],[39.8696,-0.9588],[39.8785,-0.9367],[39.8607,-0.9261],[39.8516,-0.8969],[39.8587,-0.8485],[39.8415,-0.8525],[39.8422,-0.8044],[39.8254,-0.8038],[39.8342,-0.7929],[39.8087,-0.7712],[39.8239,-0.7419],[39.808,-0.7358],[39.8125,-0.7058],[39.798,-0.6912],[39.7999,-0.671],[39.7795,-0.6618],[39.7686,-0.6293],[39.7766,-0.6131],[39.7494,-0.6051],[39.7387,-0.5876],[39.6969,-0.5916],[39.6864,-0.5516],[39.6633,-0.5489],[39.6686,-0.5316],[39.6306,-0.4899],[39.6353,-0.4573],[39.6109,-0.4398],[39.6143,-0.4104],[39.6022,-0.4096],[39.5966,-0.358],[39.561,-0.3278],[39.5435,-0.2907],[39.5258,-0.2868],[39.5136,-0.2989],[39.5174,-0.282],[39.4984,-0.2491],[39.4759,-0.2404],[39.4657,-0.2196],[39.4254,-0.189],[39.3841,-0.1905],[39.3619,-0.1625],[39.337,-0.1665],[39.3133,-0.133],[39.2573,-0.1465],[39.2264,-0.13],[39.2026,-0.1427],[39.1634,-0.1266],[39.1348,-0.1301],[39.0653,-0.0463],[39.0359,-0.0536],[39.0202,-0.0429],[38.972,-0.059],[38.967,-0.0823],[38.9398,-0.099],[38.9201,-0.0858],[38.8348,-0.0936],[38.7146,-0.06],[38.6909,-0.0397],[38.6832,-0.0537],[38.6397,-0.0521],[38.6128,-0.0287],[38.5549,-0.0155],[38.5207,-0.0624],[38.49,-0.0588],[38.4587,-0.0848],[38.4342,-0.0748]]]}},{"type":"Feature","properties":{"county":"Kitui","region_id":"asal_eastern"},"geometry":{"type":"Polygon","coordinates":[[[38.4207,-0.0693],[38.3815,-0.0855],[38.3091,-0.0515],[38.2876,-0.0843],[38.2714,-0.093],[38.2503,-0.0841],[38.2212,-0.1025],[38.2064,-0.143],[38.1858,-0.1523],[38.1625,-0.2349],[38.1434,-0.2393],[38.1137,-0.2752],[37.9973,-0.2668],[37.9649,-0.4112],[37.9348,-0.4287],[37.8821,-0.5341],[37.8826,-0.5813],[37.9219,-0.6232],[37.893,-0.6447],[37.8993,-0.7077],[37.9116,-0.7072],[37.9155,-0.728],[37.8833,-0.8025],[37.8455,-0.8098],[37.8493,-0.8308],[37.8207,-0.8813],[37.8188,-0.8976],[37.8393,-0.9087],[37.8526,-0.9368],[37.8452,-0.9638],[37.8681,-0.9732],[37.8466,-0.9937],[37.8449,-1.0469],[37.8194,-1.0702],[37.7965,-1.1271],[37.7382,-1.0775],[37.594,-1.0859],[37.5969,-1.1472],[37.6177,-1.143],[37.6336,-1.1618],[37.6883,-1.2401],[37.7445,-1.3563],[37.7652,-1.3545],[37.8036,-1.3945],[37.8191,-1.4473],[37.7732,-1.486],[37.6946,-1.4986],[37.7718,-1.5836],[37.8005,-1.6487],[37.8368,-1.6907],[37.8549,-1.7544],[37.8377,-1.7792],[37.8906,-1.838],[37.8835,-1.8524],[37.9001,-1.8632],[37.905,-1.9035],[37.9172,-1.9042],[37.9077,-1.9332],[37.9385,-2.01],[37.9364,-2.0318],[37.9531,-2.0472],[37.9628,-2.1653],[38.0195,-2.1461],[38.0476,-2.1676],[38.0737,-2.2594],[38.1105,-2.2846],[38.1161,-2.312],[38.2108,-2.3542],[38.2222,-2.3988],[38.2735,-2.4232],[38.2871,-2.4821],[38.3116,-2.5025],[38.3219,-2.5484],[38.3374,-2.5556],[38.3378,-2.5846],[38.4312,-2.7867],[38.4178,-2.8117],[38.4272,-2.8495],[38.4542,-2.8814],[38.4757,-2.9364],[38.5191,-2.9748],[38.6429,-3.0122],[38.6654,-3.0395],[38.7074,-3.032],[38.7745,-3.044],[38.8093,-3.0531],[38.7979,-3.061],[38.8046,-3.0684],[38.8418,-3.0533],[38.8635,-3.0575],[38.8936,-3.0385],[38.9729,-3.0406],[39.0245,-3.0205],[39.0751,-3.0411],[38.6265,-2.4105],[38.6848,-2.4132],[38.7371,-2.3658],[38.7952,-2.3397],[39.0151,-1.914],[38.9585,-1.7028],[38.9997,-1.6769],[38.9534,-1.0318],[38.8298,-0.7602],[38.4342,-0.0748],[38.4207,-0.0693]]]}},{"type":"Feature","properties":{"county":"Kirinyaga","region_id":null},"geometry":{"type":"Polygon","coordinates":[[[37.1691,-0.6356],[37.1792,-0.6672],[37.1994,-0.6635],[37.2124,-0.6886],[37.2371,-0.6675],[37.2494,-0.7242],[37.2697,-0.7537],[37.2554,-0.7549],[37.2673,-0.7853],[37.2752,-0.7556],[37.3172,-0.7494],[37.327,-0.7637],[37.3589,-0.7689],[37.4389,-0.7336],[37.4959,-0.7318],[37.4785,-0.7146],[37.4739,-0.686],[37.4832,-0.5823],[37.4261,-0.5105],[37.4234,-0.4084],[37.3078,-0.1511],[37.1997,-0.439],[37.1748,-0.4425],[37.1768,-0.4829],[37.1617,-0.4918],[37.168,-0.5071],[37.1464,-0.5343],[37.1441,-0.5703],[37.1786,-0.605],[37.1691,-0.6356]]]}},{"type":"Feature","properties":{"county":"Embu","region_id":null},"geometry":{"type":"Polygon","coordinates":[[[37.3078,-0.1511],[37.4234,-0.4084],[37.4261,-0.5105],[37.4832,-0.5823],[37.4739,-0.686],[37.4785,-0.7146],[37.4959,-0.7318],[37.4389,-0.7336],[37.3589,-0.7689],[37.327,-0.7637],[37.3172,-0.7494],[37.2752,-0.7556],[37.2673,-0.7853],[37.2857,-0.7829],[37.3045,-0.8001],[37.3288,-0.8444],[37.3618,-0.8442],[37.3797,-0.8574],[37.4121,-0.8503],[37.4132,-0.8611],[37.4737,-0.8759],[37.4943,-0.9048],[37.5163,-0.9],[37.5216,-0.9146],[37.5466,-0.881],[37.5884,-0.8762],[37.5891,-0.862],[37.6271,-0.8502],[37.6302,-0.837],[37.6655,-0.8441],[37.6823,-0.7944],[37.7077,-0.7799],[37.7416,-0.7761],[37.7581,-0.8219],[37.7873,-0.821],[37.8055,-0.7998],[37.8082,-0.8138],[37.8201,-0.8034],[37.835,-0.8124],[37.8831,-0.8027],[37.9155,-0.728],[37.9116,-0.7072],[37.8993,-0.7077],[37.893,-0.6447],[37.9219,-0.6232],[37.8826,-0.5813],[37.8821,-0.5341],[37.9365,-0.4273],[37.8896,-0.3912],[37.8907,-0.3449],[37.8737,-0.3489],[37.8663,-0.3818],[37.802,-0.4361],[37.7206,-0.4499],[37.662,-0.4212],[37.6304,-0.3886],[37.5538,-0.3599],[37.3078,-0.1511]]]}},{"type":"Feature","properties":{"county":"Homa Bay","region_id":null},"geometry":{"type":"Polygon","coordinates":[[[33.9477,-0.3372],[33.92,-0.5618],[33.9282,-0.8024],[34.081,-0.8024],[34.0969,-0.7823],[34.172,-0.7715],[34.202,-0.7504],[34.2504,-0.8106],[34.2982,-0.8372],[34.3207,-0.8654],[34.3818,-0.8461],[34.3908,-0.8147],[34.4637,-0.8617],[34.4967,-0.8104],[34.4806,-0.7945],[34.4853,-0.7845],[34.5336,-0.7477],[34.5605,-0.6663],[34.6046,-0.6517],[34.6377,-0.6651],[34.6622,-0.6043],[34.6859,-0.6002],[34.7043,-0.5745],[34.9388,-0.4655],[35.0214,-0.4055],[35.0108,-0.391],[34.9866,-0.4132],[34.9496,-0.4158],[34.9139,-0.403],[34.915,-0.3851],[34.8877,-0.4014],[34.8238,-0.3877],[34.8105,-0.3512],[34.7855,-0.3413],[34.7855,-0.322],[34.7601,-0.3136],[34.7546,-0.2895],[34.7064,-0.2581],[34.5324,-0.2717],[34.4224,-0.3336],[34.3076,-0.4254],[34.2822,-0.4131],[34.2398,-0.3375],[33.9477,-0.3372]]]}},{"type":"Feature","properties":{"county":"Bomet","region_id":null},"geometry":{"type":"Polygon","coordinates":[[[35.4511,-0.3654],[35.409,-0.4052],[35.3314,-0.4046],[35.3014,-0.4254],[35.232,-0.4223],[35.2086,-0.4661],[35.2181,-0.4794],[35.1841,-0.4854],[35.1414,-0.4565],[35.0837,-0.4727],[35.0521,-0.4968],[35.0471,-0.5707],[35.0628,-0.6306],[35.0547,-0.6562],[35.0715,-0.6922],[35.0476,-0.7063],[35.0911,-0.8005],[35.0443,-0.8526],[35.0212,-0.8468],[35.0255,-0.8734],[35.013,-0.8895],[35.0822,-0.9055],[35.2402,-1.0332],[35.3086,-1.0015],[35.3317,-0.9763],[35.3487,-0.9788],[35.352,-0.9663],[35.3644,-0.9763],[35.4192,-0.9471],[35.4296,-0.8957],[35.4542,-0.8851],[35.4854,-0.8311],[35.5298,-0.8049],[35.4256,-0.7212],[35.3961,-0.6449],[35.5867,-0.5881],[35.4511,-0.3654]]]}},{"type":"Feature","properties":{"county":"Nyamira","region_id":null},"geometry":{"type":"Polygon","coordinates":[[[35.0196,-0.4124],[34.8621,-0.5013],[34.8828,-0.5239],[34.8723,-0.5744],[34.8867,-0.6152],[34.8705,-0.62],[34.8459,-0.5954],[34.8159,-0.6317],[34.8123,-0.6696],[34.7862,-0.6737],[34.9066,-0.7602],[34.9439,-0.7731],[35.013,-0.8895],[35.0255,-0.8734],[35.0212,-0.8468],[35.0443,-0.8526],[35.0911,-0.8005],[35.0476,-0.7063],[35.0715,-0.6922],[35.0549,-0.658],[35.062,-0.6049],[35.0471,-0.5707],[35.056,-0.5075],[35.0328,-0.4972],[35.0448,-0.4468],[35.0196,-0.4124]]]}},{"type":"Feature","properties":{"county":"Narok","region_id":null},"geometry":{"type":"Polygon","coordinates":[[[35.5867,-0.5881],[35.3961,-0.6449],[35.4256,-0.7212],[35.5298,-0.8049],[35.4854,-0.8311],[35.4542,-0.8851],[35.4296,-0.8957],[35.4192,-0.9471],[35.3644,-0.9763],[35.3532,-0.966],[35.3487,-0.9788],[35.3317,-0.9763],[35.2487,-1.0336],[35.0822,-0.9055],[35.013,-0.8895],[34.6759,-0.9732],[34.6474,-0.9659],[34.5903,-1.0177],[34.5947,-1.0455],[34.6169,-1.0725],[34.6322,-1.1593],[34.6732,-1.208],[34.6886,-1.2106],[34.7306,-1.389],[36.0002,-2.1044],[36.0002,-2.0831],[36.0282,-2.083],[36.0431,-1.9387],[36.034,-1.9166],[36.044,-1.9091],[36.0269,-1.8903],[36.0374,-1.8905],[36.0502,-1.8574],[36.0398,-1.8217],[36.0294,-1.8253],[36.0293,-1.8098],[36.0164,-1.804],[36.0497,-1.7296],[36.0381,-1.7102],[36.0564,-1.7116],[36.0646,-1.6988],[36.0473,-1.6495],[36.0853,-1.5742],[36.052,-1.4909],[36.3462,-1.1757],[36.3339,-1.0494],[36.2625,-0.9132],[36.2035,-0.9335],[36.1846,-0.9155],[36.1571,-0.837],[36.1871,-0.8047],[36.1818,-0.7789],[36.1917,-0.7661],[36.1606,-0.7448],[36.153,-0.7145],[36.1003,-0.6759],[36.0975,-0.6396],[36.0286,-0.6789],[36.0111,-0.6635],[35.9459,-0.7143],[35.8913,-0.6496],[35.8761,-0.6505],[35.8756,-0.6371],[35.9148,-0.6352],[35.9493,-0.6657],[35.9814,-0.6303],[35.9435,-0.5552],[35.903,-0.5474],[35.8303,-0.4945],[35.8352,-0.4666],[35.8137,-0.4766],[35.8107,-0.4575],[35.7992,-0.456],[35.7712,-0.5369],[35.7375,-0.531],[35.7087,-0.5539],[35.6803,-0.6522],[35.6451,-0.7026],[35.6008,-0.6716],[35.5867,-0.5881]]]}},{"type":"Feature","properties":{"county":"Kisii","region_id":null},"geometry":{"type":"Polygon","coordinates":[[[34.6377,-0.6651],[34.644,-0.7052],[34.6313,-0.7298],[34.6185,-0.9008],[34.6327,-0.9655],[34.6759,-0.9732],[35.013,-0.8895],[34.9439,-0.7731],[34.9066,-0.7602],[34.7862,-0.6737],[34.8123,-0.6696],[34.8159,-0.6317],[34.8459,-0.5954],[34.8705,-0.62],[34.8867,-0.6152],[34.8723,-0.5744],[34.8828,-0.5239],[34.8621,-0.5013],[34.6622,-0.6043],[34.6377,-0.6651]]]}},{"type":"Feature","properties":{"county":"Murang'a","region_id":null},"geometry":{"type":"Polygon","coordinates":[[[36.72,-0.8064],[36.7477,-0.8315],[36.7741,-0.834],[36.8855,-0.8959],[37.0387,-1.0317],[37.0713,-1.026],[37.1223,-1.0532],[37.1537,-1.0539],[37.1762,-1.0346],[37.1927,-1.0429],[37.2315,-1.0181],[37.2643,-1.017],[37.3099,-1.0661],[37.3628,-1.0947],[37.42,-1.0351],[37.3823,-0.9994],[37.3386,-0.9847],[37.3662,-0.9624],[37.354,-0.9458],[37.3366,-0.9649],[37.3133,-0.9402],[37.3242,-0.9324],[37.3176,-0.9179],[37.2515,-0.8603],[37.2249,-0.8515],[37.2349,-0.8359],[37.2572,-0.8381],[37.2673,-0.7853],[37.2555,-0.7542],[37.2698,-0.7542],[37.2494,-0.7242],[37.2371,-0.6675],[37.2124,-0.6886],[37.1994,-0.6635],[37.1792,-0.6672],[37.1691,-0.6356],[37.1093,-0.6412],[37.0483,-0.5948],[36.9858,-0.576],[36.9213,-0.6093],[36.8837,-0.6113],[36.8033,-0.5703],[36.7211,-0.5717],[36.7047,-0.5902],[36.7017,-0.6492],[36.7154,-0.7547],[36.7326,-0.7794],[36.7177,-0.7801],[36.72,-0.8064]]]}},{"type":"Feature","properties":{"county":"Migori","region_id":null},"geometry":{"type":"Polygon","coordinates":[[[33.9282,-0.8024],[33.9351,-1.0011],[34.0169,-1.0024],[34.0388,-1.0456],[34.084,-1.0251],[34.7306,-1.389],[34.6886,-1.2106],[34.6732,-1.208],[34.6322,-1.1593],[34.6169,-1.0725],[34.5967,-1.0506],[34.5903,-1.0177],[34.642,-0.9683],[34.6185,-0.9008],[34.6313,-0.7298],[34.644,-0.7052],[34.6377,-0.6651],[34.6046,-0.6517],[34.5566,-0.6698],[34.5336,-0.7477],[34.4853,-0.7845],[34.4806,-0.7945],[34.4967,-0.8104],[34.4637,-0.8617],[34.3908,-0.8147],[34.3818,-0.8461],[34.3193,-0.8651],[34.2982,-0.8372],[34.2504,-0.8106],[34.202,-0.7504],[34.172,-0.7715],[34.0969,-0.7823],[34.081,-0.8024],[33.9282,-0.8024]]]}},{"type":"Feature","properties":{"county":"Kiambu","region_id":null},"geometry":{"type":"Polygon","coordinates":[[[36.5337,-1.1559],[36.5106,-1.2402],[36.4882,-1.2718],[36.6576,-1.3048],[36.6639,-1.3152],[36.6902,-1.2589],[36.7175,-1.2615],[36.7262,-1.2324],[36.7445,-1.2355],[36.7532,-1.2209],[36.7738,-1.2298],[36.788,-1.1911],[36.8304,-1.2147],[36.827,-1.2062],[36.8455,-1.2115],[36.8592,-1.1893],[36.8965,-1.1925],[36.885,-1.1721],[36.896,-1.1605],[36.9392,-1.174],[36.9092,-1.2064],[36.9288,-1.2216],[36.9861,-1.2231],[37.0046,-1.2367],[37.0604,-1.2058],[37.0788,-1.2377],[37.0878,-1.2324],[37.0866,-1.248],[37.1091,-1.2605],[37.1205,-1.2353],[37.1548,-1.2218],[37.1554,-1.1955],[37.1821,-1.1668],[37.1865,-1.1386],[37.1752,-1.1161],[37.2109,-1.08],[37.281,-1.0661],[37.3429,-1.1176],[37.3628,-1.0947],[37.3099,-1.0661],[37.2643,-1.017],[37.2315,-1.0181],[37.1927,-1.0429],[37.1762,-1.0346],[37.1537,-1.0539],[37.1223,-1.0532],[37.0713,-1.026],[37.0363,-1.0308],[36.8864,-0.8965],[36.7741,-0.834],[36.7477,-0.8315],[36.6716,-0.7585],[36.6083,-0.8056],[36.6186,-0.8298],[36.586,-0.8265],[36.598,-0.8618],[36.5528,-0.92],[36.578,-0.9293],[36.5725,-0.9423],[36.5954,-0.9917],[36.5883,-1.0634],[36.5337,-1.1559]]]}},{"type":"Feature","properties":{"county":"Machakos","region_id":"asal_eastern"},"geometry":{"type":"Polygon","coordinates":[[[37.8455,-0.8098],[37.8203,-0.8034],[37.808,-0.8137],[37.8055,-0.7998],[37.7873,-0.821],[37.7581,-0.8219],[37.7416,-0.7761],[37.7077,-0.7799],[37.6823,-0.7944],[37.6655,-0.8441],[37.6302,-0.837],[37.6271,-0.8502],[37.5891,-0.862],[37.5884,-0.8762],[37.5466,-0.881],[37.5212,-0.9146],[37.5163,-0.9],[37.4943,-0.9048],[37.4737,-0.8759],[37.4132,-0.8611],[37.4121,-0.8503],[37.3797,-0.8574],[37.3618,-0.8442],[37.3288,-0.8444],[37.2869,-0.7836],[37.2624,-0.7918],[37.2572,-0.8381],[37.2349,-0.8359],[37.2249,-0.8515],[37.2515,-0.8603],[37.3176,-0.9179],[37.3242,-0.9324],[37.3133,-0.9402],[37.3366,-0.9649],[37.354,-0.9458],[37.3662,-0.9624],[37.3386,-0.9847],[37.3823,-0.9994],[37.42,-1.0351],[37.3429,-1.1176],[37.2804,-1.0659],[37.2122,-1.0794],[37.1922,-1.0951],[37.1752,-1.1161],[37.1865,-1.1386],[37.1819,-1.1675],[37.1554,-1.1955],[37.1531,-1.2238],[37.1205,-1.2353],[37.1021,-1.2745],[37.0771,-1.2848],[37.0763,-1.3031],[37.0248,-1.2919],[37.0026,-1.3007],[36.9951,-1.2816],[36.9728,-1.2894],[36.9791,-1.3167],[36.9399,-1.3326],[36.9047,-1.3656],[36.9589,-1.4441],[36.8877,-1.4156],[36.876,-1.4794],[36.8881,-1.4873],[36.9407,-1.4548],[36.9759,-1.478],[36.9589,-1.5432],[37.1109,-1.734],[37.1479,-1.738],[37.1527,-1.7787],[37.2205,-1.7696],[37.2444,-1.7357],[37.2795,-1.7705],[37.3019,-1.7532],[37.2868,-1.7183],[37.3116,-1.7002],[37.3734,-1.7052],[37.4133,-1.6887],[37.3635,-1.5901],[37.3349,-1.5617],[37.3798,-1.5202],[37.4355,-1.5327],[37.4872,-1.517],[37.5205,-1.5374],[37.5526,-1.5391],[37.5549,-1.557],[37.5723,-1.5649],[37.5969,-1.551],[37.6405,-1.5864],[37.6594,-1.6452],[37.6812,-1.6253],[37.6822,-1.5859],[37.7006,-1.5829],[37.7176,-1.6085],[37.7339,-1.5951],[37.7305,-1.5806],[37.7533,-1.5664],[37.7498,-1.5553],[37.6946,-1.4986],[37.7732,-1.486],[37.8191,-1.4473],[37.8036,-1.3945],[37.7744,-1.3606],[37.7447,-1.3564],[37.7316,-1.3401],[37.6883,-1.2401],[37.6244,-1.1492],[37.5969,-1.1472],[37.594,-1.0859],[37.7382,-1.0775],[37.7965,-1.1271],[37.8194,-1.0702],[37.8449,-1.0469],[37.8466,-0.9937],[37.8682,-0.9747],[37.8452,-0.9638],[37.8542,-0.9612],[37.8507,-0.9311],[37.8186,-0.8969],[37.8493,-0.8308],[37.8455,-0.8098]]]}},{"type":"Feature","properties":{"county":"Kajiado","region_id":null},"geometry":{"type":"Polygon","coordinates":[[[36.3339,-1.0494],[36.3462,-1.1757],[36.052,-1.4909],[36.0853,-1.5742],[36.0473,-1.6495],[36.0646,-1.6988],[36.0564,-1.7116],[36.0381,-1.7102],[36.0497,-1.7296],[36.0164,-1.804],[36.0293,-1.8098],[36.0294,-1.8253],[36.0398,-1.8217],[36.0502,-1.8574],[36.0374,-1.8905],[36.0269,-1.8903],[36.044,-1.9091],[36.034,-1.9166],[36.0431,-1.9387],[36.0282,-2.083],[36.0002,-2.0831],[36.0002,-2.1044],[37.5203,-2.9561],[37.6714,-3.0587],[37.6906,-3.1789],[37.8045,-3.1658],[37.8327,-3.1854],[37.8478,-3.1824],[37.8541,-3.0785],[37.8708,-3.0774],[37.8951,-2.8859],[37.9183,-2.8685],[37.9394,-2.777],[37.9215,-2.7043],[37.9009,-2.7024],[37.8495,-2.6039],[37.5973,-2.3109],[37.612,-2.2971],[37.6227,-2.3042],[37.6689,-2.2873],[37.6742,-2.2282],[37.7232,-2.1872],[37.6984,-2.1636],[37.6643,-2.1542],[37.594,-2.1528],[37.5637,-2.1255],[37.5415,-2.1216],[37.5352,-2.1057],[37.452,-2.0738],[37.3605,-2.0128],[37.2804,-1.9948],[37.2643,-1.9586],[37.2359,-1.9368],[37.1862,-1.9345],[37.1521,-1.8881],[37.1616,-1.8571],[37.1419,-1.8392],[37.1413,-1.8128],[37.1601,-1.7794],[37.1486,-1.739],[37.1109,-1.734],[36.9627,-1.5493],[36.9759,-1.478],[36.9353,-1.4554],[36.8826,-1.489],[36.8905,-1.4105],[36.8177,-1.381],[36.7724,-1.3886],[36.7317,-1.3784],[36.6599,-1.3221],[36.6576,-1.3048],[36.4882,-1.2718],[36.5106,-1.2402],[36.5337,-1.1559],[36.4893,-1.1225],[36.3339,-1.0494]]]}},{"type":"Feature","properties":{"county":"Nairobi","region_id":null},"geometry":{"type":"Polygon","coordinates":[[[36.6639,-1.3152],[36.6931,-1.3546],[36.7317,-1.3784],[36.8421,-1.3861],[36.9589,-1.4441],[36.9047,-1.3656],[36.9399,-1.3326],[36.9791,-1.3167],[36.9728,-1.2894],[36.9951,-1.2816],[37.0026,-1.3007],[37.0248,-1.2919],[37.0763,-1.3031],[37.0771,-1.2848],[37.1044,-1.2652],[37.0604,-1.2058],[37.0046,-1.2367],[36.9861,-1.2231],[36.9545,-1.2289],[36.9208,-1.2178],[36.9092,-1.2064],[36.9392,-1.174],[36.896,-1.1605],[36.885,-1.1721],[36.8965,-1.1925],[36.8592,-1.1893],[36.8455,-1.2115],[36.827,-1.2062],[36.8304,-1.2147],[36.788,-1.1911],[36.7738,-1.2298],[36.7532,-1.2209],[36.7445,-1.2355],[36.7262,-1.2324],[36.7175,-1.2615],[36.6902,-1.2589],[36.6639,-1.3152]]]}},{"type":"Feature","properties":{"county":"Makueni","region_id":"asal_eastern"},"geometry":{"type":"Polygon","coordinates":[[[37.7533,-1.5664],[37.7339,-1.5754],[37.7339,-1.5951],[37.7189,-1.6084],[37.7006,-1.5829],[37.6822,-1.5859],[37.6812,-1.6253],[37.6594,-1.6452],[37.6405,-1.5864],[37.5969,-1.551],[37.5723,-1.5649],[37.5549,-1.557],[37.5526,-1.5391],[37.5205,-1.5374],[37.4872,-1.517],[37.4355,-1.5327],[37.3798,-1.5202],[37.3349,-1.5617],[37.3635,-1.5901],[37.4136,-1.6883],[37.3734,-1.7052],[37.3116,-1.7002],[37.2868,-1.7183],[37.3019,-1.7532],[37.2795,-1.7705],[37.2444,-1.7357],[37.2205,-1.7696],[37.1601,-1.7802],[37.1413,-1.8128],[37.1421,-1.8399],[37.1624,-1.8616],[37.1521,-1.8881],[37.1862,-1.9345],[37.2341,-1.936],[37.2643,-1.9586],[37.2791,-1.9937],[37.2993,-2.0058],[37.3605,-2.0128],[37.452,-2.0738],[37.5352,-2.1057],[37.5415,-2.1216],[37.5637,-2.1255],[37.594,-2.1528],[37.6643,-2.1542],[37.6984,-2.1636],[37.7232,-2.1872],[37.6742,-2.2282],[37.6689,-2.2873],[37.6227,-2.3042],[37.612,-2.2971],[37.5973,-2.3109],[37.8495,-2.6039],[37.9009,-2.7024],[37.9215,-2.7043],[37.9279,-2.7605],[37.9441,-2.7808],[37.9737,-2.7886],[38.1277,-2.699],[38.151,-2.6992],[38.1615,-2.6799],[38.2706,-2.77],[38.3512,-2.8869],[38.4086,-2.9283],[38.4575,-2.9903],[38.488,-2.9775],[38.5134,-2.9831],[38.5191,-2.9748],[38.4757,-2.9364],[38.4542,-2.8814],[38.4274,-2.8499],[38.4178,-2.8117],[38.4314,-2.7872],[38.3378,-2.5846],[38.3374,-2.5556],[38.3219,-2.5484],[38.3116,-2.5025],[38.2871,-2.4821],[38.2735,-2.4232],[38.2222,-2.3988],[38.2108,-2.3542],[38.1161,-2.312],[38.1105,-2.2846],[38.0737,-2.2594],[38.0476,-2.1676],[38.0195,-2.1461],[37.9628,-2.1653],[37.9531,-2.0472],[37.9364,-2.0318],[37.9385,-2.01],[37.9077,-1.9332],[37.917,-1.9034],[37.905,-1.9035],[37.9001,-1.8632],[37.8835,-1.8524],[37.8906,-1.838],[37.8377,-1.7792],[37.8549,-1.7544],[37.8368,-1.6907],[37.8199,-1.6806],[37.7533,-1.5664]]]}},{"type":"Feature","properties":{"county":"Lamu","region_id":null},"geometry":{"type":"MultiPolygon","coordinates":[[[[40.2079,-2.0329],[40.2495,-2.2488],[40.2495,-2.3981],[40.4407,-2.3975],[40.6637,-2.4679],[40.7673,-2.4501],[40.7761,-2.4257],[40.8223,-2.3892],[40.8231,-2.3696],[40.7947,-2.3399],[40.7723,-2.3945],[40.7591,-2.3952],[40.7811,-2.3606],[40.7637,-2.3504],[40.7587,-2.3173],[40.7269,-2.3036],[40.7041,-2.3089],[40.6909,-2.2889],[40.7043,-2.2787],[40.7157,-2.2856],[40.7057,-2.2699],[40.7251,-2.2715],[40.7257,-2.2855],[40.7581,-2.3072],[40.7377,-2.2821],[40.7433,-2.2704],[40.7561,-2.2754],[40.7343,-2.2562],[40.7245,-2.2667],[40.7047,-2.2612],[40.6995,-2.253],[40.7157,-2.2573],[40.7259,-2.2399],[40.6955,-2.2047],[40.7263,-2.2194],[40.7439,-2.2449],[40.7457,-2.2271],[40.7579,-2.2526],[40.7747,-2.2375],[40.7809,-2.2604],[40.7995,-2.2452],[40.7953,-2.2323],[40.8367,-2.2293],[40.8279,-2.2433],[40.8765,-2.2326],[40.8611,-2.232],[40.8785,-2.2213],[40.8597,-2.2117],[40.8823,-2.2128],[40.8689,-2.201],[40.8823,-2.1864],[40.8867,-2.2029],[40.8993,-2.1982],[40.9031,-2.2121],[40.9259,-2.221],[40.9123,-2.0894],[40.9041,-2.0773],[40.8957,-2.0834],[40.8979,-2.0702],[40.8761,-2.0741],[40.8843,-2.0619],[40.8685,-2.0766],[40.8505,-2.0698],[40.8805,-2.0542],[40.8941,-2.0612],[40.8749,-2.0442],[40.8875,-2.0321],[40.9001,-2.0462],[40.9031,-2.0106],[40.8287,-2.0176],[40.8721,-2.0005],[40.8433,-1.9788],[40.8137,-1.9747],[40.7689,-1.9425],[40.7737,-1.9338],[40.8423,-1.9596],[40.8409,-1.9305],[40.8523,-1.9674],[40.8641,-1.9712],[40.8735,-1.9503],[40.8787,-1.9885],[40.9027,-1.9828],[40.8977,-1.9905],[40.9367,-2.0086],[40.9195,-2.0302],[40.9433,-2.0517],[40.9457,-2.0763],[40.9623,-2.0642],[40.9495,-2.0267],[40.9697,-1.9835],[40.9615,-1.9428],[40.9797,-1.9277],[40.9749,-1.92],[40.9919,-1.9188],[40.9803,-1.9042],[40.9935,-1.9115],[41.0031,-1.886],[41.0195,-1.8921],[41.0405,-1.8656],[41.0481,-1.8896],[41.0125,-1.9076],[40.9831,-1.9464],[40.9939,-1.9588],[40.9827,-2.0162],[40.9923,-2.0357],[41.0093,-2.0302],[41.0115,-2.0473],[41.0213,-2.0353],[41.0311,-2.0406],[41.0529,-2.0042],[41.0599,-2.0135],[41.0661,-1.9788],[41.1131,-1.9601],[41.1189,-1.972],[41.2255,-1.8869],[41.2185,-1.9098],[41.2359,-1.8999],[41.2381,-1.9184],[41.2515,-1.9079],[41.2361,-1.9494],[41.2485,-1.9517],[41.2623,-1.932],[41.2801,-1.9384],[41.2773,-1.9817],[41.3033,-1.9541],[41.3115,-1.9608],[41.3393,-1.9134],[41.3871,-1.8704],[41.3663,-1.8598],[41.3875,-1.862],[41.5621,-1.6586],[40.9029,-1.7145],[40.2079,-2.0329]]],[[[41.0855,-2.0524],[41.0761,-2.0766],[41.0593,-2.0828],[41.0681,-2.0973],[41.0575,-2.098],[41.0455,-2.1334],[41.0771,-2.1273],[41.0679,-2.125],[41.0751,-2.1123],[41.0897,-2.1107],[41.0851,-2.1349],[41.1043,-2.1377],[41.1141,-2.1293],[41.0945,-2.0976],[41.1095,-2.0802],[41.1349,-2.0814],[41.1389,-2.095],[41.1637,-2.0808],[41.1373,-2.061],[41.1419,-2.0701],[41.1273,-2.0723],[41.1201,-2.0569],[41.1173,-2.0669],[41.1003,-2.0498],[41.0855,-2.0524]]],[[[40.8919,-2.2479],[40.8427,-2.2579],[40.8343,-2.267],[40.8453,-2.2777],[40.8235,-2.2751],[40.8143,-2.3315],[40.8687,-2.297],[40.9133,-2.2948],[40.8919,-2.2479]]],[[[40.9729,-2.2222],[40.9735,-2.2483],[40.9603,-2.2562],[40.9637,-2.2404],[40.9465,-2.2297],[40.9391,-2.2598],[40.9379,-2.2372],[40.9019,-2.2226],[40.9279,-2.2784],[40.9643,-2.278],[40.9555,-2.2948],[40.9215,-2.2961],[40.9187,-2.3154],[40.9551,-2.3072],[40.9881,-2.2585],[40.9729,-2.2222]]],[[[41.0535,-2.0859],[41.0065,-2.0969],[41.0055,-2.1163],[40.9905,-2.0989],[40.9703,-2.1143],[40.9963,-2.1389],[41.0129,-2.1382],[41.0085,-2.1259],[41.0517,-2.1077],[41.0535,-2.0859]]]]}},{"type":"Feature","properties":{"county":"Kilifi","region_id":null},"geometry":{"type":"MultiPolygon","coordinates":[[[[39.2174,-3.0729],[39.0923,-3.5671],[39.3189,-3.5638],[39.3267,-3.5873],[39.3471,-3.6002],[39.3565,-3.7267],[39.3727,-3.7395],[39.3909,-3.7354],[39.3773,-3.8066],[39.3967,-3.8235],[39.4203,-3.8194],[39.4943,-3.8843],[39.5279,-3.9298],[39.5427,-3.9914],[39.5539,-3.9832],[39.5673,-3.9929],[39.5679,-3.9749],[39.5981,-3.9473],[39.6085,-3.9583],[39.6495,-3.958],[39.6419,-3.9231],[39.6889,-3.9219],[39.6909,-3.9066],[39.7087,-3.9052],[39.7123,-3.8933],[39.7033,-3.9225],[39.7135,-3.9464],[39.7643,-3.9495],[39.8293,-3.8186],[39.8697,-3.693],[39.8651,-3.6761],[39.8387,-3.674],[39.8651,-3.6745],[39.8615,-3.6396],[39.8365,-3.6289],[39.8183,-3.6454],[39.7953,-3.6438],[39.7795,-3.6209],[39.8091,-3.6205],[39.7797,-3.6097],[39.7713,-3.5884],[39.7857,-3.5777],[39.7815,-3.6079],[39.8131,-3.6016],[39.8439,-3.6308],[39.8697,-3.628],[39.9683,-3.4008],[39.9473,-3.3767],[39.9351,-3.3867],[39.9375,-3.3473],[39.9541,-3.3434],[39.9543,-3.3261],[39.9959,-3.312],[39.9833,-3.3315],[39.9965,-3.3637],[39.9713,-3.3733],[39.9743,-3.3861],[40.1195,-3.2867],[40.1313,-3.2542],[40.1167,-3.2018],[40.1335,-3.1616],[40.1247,-3.147],[40.1369,-3.1567],[40.1599,-3.1288],[40.1531,-3.0829],[40.1721,-3.0631],[40.1741,-3.0362],[40.2047,-3.0024],[40.2397,-2.9897],[40.2367,-2.9751],[40.2183,-2.9913],[40.1845,-2.9925],[40.1631,-3.0326],[40.1497,-3.0308],[40.1457,-3.0447],[40.1415,-3.0338],[40.1587,-2.9305],[40.1595,-2.9131],[40.1515,-2.9195],[40.1479,-2.9092],[40.1619,-2.9123],[40.1695,-2.8887],[40.1481,-2.9005],[40.1443,-2.8918],[40.1549,-2.8671],[40.1623,-2.8804],[40.1837,-2.8301],[40.1679,-2.7925],[40.1633,-2.8],[40.1553,-2.7897],[40.1667,-2.7781],[40.1623,-2.7569],[40.1671,-2.7666],[40.1739,-2.757],[40.1567,-2.7291],[40.1757,-2.7137],[39.8897,-2.3101],[39.2174,-3.0729]]]]}},{"type":"Feature","properties":{"county":"Taita Taveta","region_id":null},"geometry":{"type":"Polygon","coordinates":[[[39.0751,-3.0411],[39.0245,-3.0205],[38.9729,-3.0406],[38.8936,-3.0385],[38.8635,-3.0575],[38.8418,-3.0533],[38.8067,-3.0687],[38.7978,-3.0614],[38.8093,-3.0531],[38.7745,-3.044],[38.7074,-3.032],[38.6654,-3.0395],[38.6429,-3.0122],[38.539,-2.9737],[38.4588,-2.991],[38.4086,-2.9283],[38.3512,-2.8869],[38.2706,-2.77],[38.1615,-2.6799],[38.151,-2.6992],[38.1277,-2.699],[37.9737,-2.7886],[37.9394,-2.777],[37.9183,-2.8685],[37.8951,-2.8859],[37.8708,-3.0774],[37.8541,-3.0785],[37.8529,-3.1782],[37.833,-3.1855],[37.8043,-3.1658],[37.6906,-3.1789],[37.7112,-3.308],[37.6845,-3.32],[37.6795,-3.3527],[37.6614,-3.355],[37.5848,-3.4384],[37.5848,-3.4598],[37.6225,-3.4627],[37.6045,-3.5182],[37.6694,-3.5061],[37.7441,-3.5426],[37.7838,-3.6734],[38.4465,-4.1372],[38.9453,-3.9589],[39.0368,-3.7597],[38.9275,-3.6955],[38.9651,-3.6318],[39.0613,-3.6893],[39.2174,-3.0729],[39.1744,-3.0568],[39.1631,-3.0657],[39.151,-3.045],[39.1321,-3.0414],[39.1273,-3.0192],[39.0858,-3.0522],[39.0751,-3.0411]]]}},{"type":"Feature","properties":{"county":"Kwale","region_id":null},"geometry":{"type":"MultiPolygon","coordinates":[[[[39.0923,-3.5671],[39.0613,-3.6893],[38.9651,-3.6318],[38.9275,-3.6955],[39.0368,-3.7597],[38.9453,-3.9589],[38.4465,-4.1372],[39.2065,-4.675],[39.2251,-4.6651],[39.2131,-4.6655],[39.2207,-4.6508],[39.2109,-4.6468],[39.2323,-4.631],[39.2225,-4.6316],[39.2261,-4.6161],[39.2689,-4.5999],[39.2515,-4.5917],[39.2439,-4.5668],[39.2793,-4.584],[39.2947,-4.5666],[39.3189,-4.5639],[39.3131,-4.5519],[39.3359,-4.5667],[39.3187,-4.5766],[39.3085,-4.6069],[39.3255,-4.6125],[39.3137,-4.6133],[39.3099,-4.6315],[39.3995,-4.6442],[39.3945,-4.5823],[39.3875,-4.5887],[39.3755,-4.5397],[39.3909,-4.5523],[39.4097,-4.5477],[39.4153,-4.5318],[39.4267,-4.5331],[39.4225,-4.5146],[39.4383,-4.517],[39.4431,-4.5033],[39.4623,-4.5303],[39.4763,-4.4862],[39.4967,-4.4659],[39.4987,-4.4433],[39.4889,-4.4389],[39.5079,-4.4356],[39.5079,-4.3992],[39.5313,-4.4057],[39.5375,-4.4359],[39.5967,-4.2698],[39.5961,-4.2569],[39.5829,-4.256],[39.5979,-4.2549],[39.6407,-4.1552],[39.6253,-4.1449],[39.6377,-4.1206],[39.6081,-4.0891],[39.5951,-4.115],[39.5767,-4.1195],[39.5867,-4.1024],[39.5767,-4.0373],[39.5629,-4.0196],[39.5675,-3.993],[39.5539,-3.9832],[39.5427,-3.9914],[39.5203,-3.9162],[39.4203,-3.8194],[39.3967,-3.8235],[39.3773,-3.8066],[39.3909,-3.7354],[39.3727,-3.7395],[39.3565,-3.7267],[39.3471,-3.6002],[39.3267,-3.5873],[39.3189,-3.5638],[39.0923,-3.5671]]],[[[39.4535,-4.5588],[39.4535,-4.5321],[39.4453,-4.5586],[39.4259,-4.5553],[39.4363,-4.5879],[39.4535,-4.5588]]]]}},{"type":"Feature","properties":{"county":"Mombasa","region_id":null},"geometry":{"type":"MultiPolygon","coordinates":[[[[39.6479,-3.951],[39.6621,-3.9477],[39.6723,-3.987],[39.6605,-4.0194],[39.6745,-4.0135],[39.6731,-4.0412],[39.6849,-4.0601],[39.6979,-4.0592],[39.7637,-3.9571],[39.6865,-3.9499],[39.7069,-3.9462],[39.6903,-3.9336],[39.6963,-3.9239],[39.6705,-3.9187],[39.6419,-3.9231],[39.6479,-3.951]]],[[[39.5674,-3.9928],[39.5675,-4.0193],[39.5877,-4.024],[39.5841,-4.0431],[39.6481,-4.0317],[39.6343,-3.9883],[39.6229,-3.9959],[39.6115,-3.9807],[39.5967,-3.9852],[39.6077,-3.9754],[39.5981,-3.9473],[39.5679,-3.9749],[39.5674,-3.9928]]],[[[39.6253,-4.1449],[39.6409,-4.155],[39.6737,-4.0897],[39.6525,-4.0723],[39.6459,-4.0796],[39.6375,-4.0491],[39.6169,-4.059],[39.6219,-4.0707],[39.5923,-4.0631],[39.5839,-4.0896],[39.5863,-4.1169],[39.6081,-4.0891],[39.6377,-4.1206],[39.6253,-4.1449]]],[[[39.6641,-4.0287],[39.6401,-4.0389],[39.6695,-4.0772],[39.6817,-4.0683],[39.6641,-4.0287]]],[[[39.6231,-3.9596],[39.6167,-3.9739],[39.6305,-3.9792],[39.6373,-3.9688],[39.6601,-3.9845],[39.6529,-3.9588],[39.6231,-3.9596]]]]}}]}